[{"Business Name":"Fairview Rec Center","Category":"activity","Latitude":61.212920586,"Longitude":-149.862048815,"Postcode":"88591"},{"Business Name":"Anchorage Senior Center","Category":"activity","Latitude":61.2027917443,"Longitude":-149.8575555255,"Postcode":"88591"},{"Business Name":"Arctic Gymnastics","Category":"activity","Latitude":61.1902291017,"Longitude":-149.9012157,"Postcode":"99503"},{"Business Name":"The Nave","Category":"activity","Latitude":61.188757276,"Longitude":-149.9095303408,"Postcode":"99503"},{"Business Name":"Spenard Rec Center","Category":"activity","Latitude":61.1764911099,"Longitude":-149.921144782,"Postcode":"99517"},{"Business Name":"Asian Alaskan Cultural Center","Category":"activity","Latitude":61.1768412017,"Longitude":-149.9244114,"Postcode":"99517"},{"Business Name":"Mountainview Boy's and Girl's Club","Category":"activity","Latitude":61.2262386335,"Longitude":-149.8112043165,"Postcode":"99598"},{"Business Name":"Arctic Oasis Community Center","Category":"activity","Latitude":61.2447445432,"Longitude":-149.8073481508,"Postcode":"99506"},{"Business Name":"Lidia Selkregg Chalet","Category":"activity","Latitude":61.2061300505,"Longitude":-149.7888671028,"Postcode":"99504"},{"Business Name":"Jim Haffey Ski Shack","Category":"activity","Latitude":61.1893771017,"Longitude":-149.8010434,"Postcode":"99508"},{"Business Name":"Anchorage Rowing Association Boat Pen","Category":"activity","Latitude":61.1522349017,"Longitude":-149.95579,"Postcode":"88515"},{"Business Name":"Campbell Creek Science Center","Category":"activity","Latitude":61.1641000868,"Longitude":-149.7773211822,"Postcode":"99507"},{"Business Name":"Northeast Community Center","Category":"activity","Latitude":61.2111330017,"Longitude":-149.7308601,"Postcode":"99504"},{"Business Name":"Kincaid Park Chalet","Category":"activity","Latitude":61.1541834671,"Longitude":-150.0554380957,"Postcode":"99502"},{"Business Name":"Girdwood Community Center","Category":"activity","Latitude":60.9602327629,"Longitude":-149.1356957073,"Postcode":"99587"},{"Business Name":"Palmer Senior Center","Category":"activity","Latitude":61.5946416939,"Longitude":-149.1119809544,"Postcode":"99645"},{"Business Name":"Cooper Landing Community Center","Category":"activity","Latitude":60.493410042,"Longitude":-149.8234231924,"Postcode":"N\/A"},{"Business Name":"Seward Senior Center","Category":"activity","Latitude":60.1044320016,"Longitude":-149.4417145,"Postcode":"99664"},{"Business Name":"The Altitude","Category":"access_limited","Latitude":62.5541320467,"Longitude":-150.2208764905,"Postcode":"N\/A"},{"Business Name":"Anchor Point Senior Center","Category":"activity","Latitude":59.7803462059,"Longitude":-151.8447034318,"Postcode":"99556"},{"Business Name":"McKinley Community Center","Category":"activity","Latitude":63.6511708102,"Longitude":-148.8119785772,"Postcode":"N\/A"},{"Business Name":"Healy Community Center","Category":"activity","Latitude":63.8703908002,"Longitude":-149.006371,"Postcode":"99743"},{"Business Name":"Hess Village Community Center","Category":"activity","Latitude":64.860552044,"Longitude":-147.8290403444,"Postcode":"99775"},{"Business Name":"Ken Kunkel Community Center","Category":"activity","Latitude":64.9131620213,"Longitude":-147.9104183646,"Postcode":"99709"},{"Business Name":"Tok Visitor Center","Category":"activity","Latitude":63.3349140007,"Longitude":-142.980664,"Postcode":"99780"},{"Business Name":"Community Hall","Category":"activity","Latitude":66.0444720773,"Longitude":-154.255256137,"Postcode":"99745"},{"Business Name":"Tr’ondëk Hwëch’in Community Support Centre","Category":"activity","Latitude":64.0645598332,"Longitude":-139.4307855183,"Postcode":"Y0B 1G0"}]