[{"Factory Name":"West 5th Avenue","Category":"catering","Latitude":61.2176809017,"Longitude":-149.8969778,"Postcode":"99501"},{"Factory Name":"West 3rd Avenue","Category":"building","Latitude":61.2197644511,"Longitude":-149.8958086321,"Postcode":"99501"},{"Factory Name":"G Street","Category":"production","Latitude":61.2088265017,"Longitude":-149.8952256,"Postcode":"99501"},{"Factory Name":"Ocean Dock Road","Category":"production","Latitude":61.2303818747,"Longitude":-149.8938764046,"Postcode":"99501"},{"Factory Name":"Tidewater Road","Category":"production","Latitude":61.2342540056,"Longitude":-149.8848448425,"Postcode":"99501"},{"Factory Name":"Tidewater Road","Category":"production","Latitude":61.2354480154,"Longitude":-149.8836004891,"Postcode":"99501"},{"Factory Name":"Denali Street","Category":"production","Latitude":61.1914499017,"Longitude":-149.8763373,"Postcode":"99599"},{"Factory Name":"Old Seward Highway","Category":"building","Latitude":61.1904821534,"Longitude":-149.8690796181,"Postcode":"99503"},{"Factory Name":"West 58th Avenue","Category":"production","Latitude":61.1686443587,"Longitude":-149.8916406351,"Postcode":"99518"},{"Factory Name":"King Street","Category":"catering","Latitude":61.1491289017,"Longitude":-149.878652,"Postcode":"99518"},{"Factory Name":"East 82nd Avenue","Category":"production","Latitude":61.1465731017,"Longitude":-149.8678209,"Postcode":"99518"},{"Factory Name":"East Diamond Court","Category":"production","Latitude":61.1453050539,"Longitude":-149.8508348273,"Postcode":"99507"},{"Factory Name":"King Street","Category":"production","Latitude":61.1399085017,"Longitude":-149.8776237,"Postcode":"99515"},{"Factory Name":"King Street","Category":"building","Latitude":61.1391707811,"Longitude":-149.8802792662,"Postcode":"99515"},{"Factory Name":"West 92nd Avenue","Category":"building","Latitude":61.1385500519,"Longitude":-149.8814812312,"Postcode":"99515"},{"Factory Name":"Golovin Street","Category":"building","Latitude":61.140343255,"Longitude":-149.837366975,"Postcode":"99507"},{"Factory Name":"Mausel Street","Category":"production","Latitude":61.3191689017,"Longitude":-149.5808749,"Postcode":"99577"},{"Factory Name":"West Aviation Avenue","Category":"building","Latitude":61.5738777836,"Longitude":-149.5431564793,"Postcode":"99654"},{"Factory Name":"East Susitna Avenue","Category":"building","Latitude":61.5795823791,"Longitude":-149.4455494814,"Postcode":"99654"},{"Factory Name":"Alyeska Highway","Category":"building","Latitude":60.9604302036,"Longitude":-149.1240957739,"Postcode":"99587"},{"Factory Name":"East Palmer-Wasilla Highway","Category":"building","Latitude":61.585595217,"Longitude":-149.3351485486,"Postcode":"99654"},{"Factory Name":"Homestead Lane","Category":"building","Latitude":60.4846817511,"Longitude":-151.0570457178,"Postcode":"N\/A"},{"Factory Name":"Bridge Access Road","Category":"building","Latitude":60.550765987,"Longitude":-151.2292074698,"Postcode":"99611"},{"Factory Name":"Bridge Access Road","Category":"building","Latitude":60.5522483017,"Longitude":-151.23417175,"Postcode":"99611"},{"Factory Name":"Boat Launch Road","Category":"building","Latitude":60.5460582017,"Longitude":-151.22127455,"Postcode":"99611"},{"Factory Name":"Romano Road","Category":"building","Latitude":62.1615527451,"Longitude":-150.029061572,"Postcode":"N\/A"},{"Factory Name":"Bowpicker Lane","Category":"building","Latitude":60.5362846591,"Longitude":-151.2567439604,"Postcode":"99611"},{"Factory Name":"Mallard Road","Category":"production","Latitude":60.5148944017,"Longitude":-151.2213553,"Postcode":"99611"},{"Factory Name":"Kalifornsky Beach Road","Category":"building","Latitude":60.5158746571,"Longitude":-151.2540356041,"Postcode":"99610"},{"Factory Name":"Skein Avenue","Category":"building","Latitude":60.3837817075,"Longitude":-151.2842969785,"Postcode":"99610"},{"Factory Name":"East Main Street","Category":"building","Latitude":62.3234527762,"Longitude":-150.1140670761,"Postcode":"N\/A"},{"Factory Name":"Washington Street","Category":"catering","Latitude":60.1009036016,"Longitude":-149.440854,"Postcode":"99664"},{"Factory Name":"Airport Lane","Category":"building","Latitude":60.0528293016,"Longitude":-151.6672316,"Postcode":"99639"},{"Factory Name":"Airport Lane","Category":"building","Latitude":60.0526705516,"Longitude":-151.6670088,"Postcode":"99639"},{"Factory Name":"Airport Lane","Category":"building","Latitude":60.0525048016,"Longitude":-151.6673325,"Postcode":"99639"},{"Factory Name":"Galena Drive","Category":"production","Latitude":61.1283637017,"Longitude":-146.3532068,"Postcode":"99686"},{"Factory Name":"N\/A","Category":"building","Latitude":60.1082664815,"Longitude":-152.5806319577,"Postcode":"N\/A"},{"Factory Name":"Little Fireweed Lane","Category":"building","Latitude":59.663843349,"Longitude":-151.4584011747,"Postcode":"99603"},{"Factory Name":"Dayville Road","Category":"production","Latitude":61.0843620994,"Longitude":-146.3030195957,"Postcode":"N\/A"},{"Factory Name":"Ben Walters Lane","Category":"building","Latitude":59.6461180967,"Longitude":-151.5216313196,"Postcode":"N\/A"},{"Factory Name":"Lakeshore Drive","Category":"building","Latitude":59.6401222249,"Longitude":-151.5064449402,"Postcode":"99603"},{"Factory Name":"George Parks Highway","Category":"catering","Latitude":63.8638809002,"Longitude":-149.016428,"Postcode":"99743"},{"Factory Name":"2nd Street","Category":"production","Latitude":64.5621718994,"Longitude":-149.0962797,"Postcode":"99760"},{"Factory Name":"Delta Concrete Lane","Category":"production","Latitude":64.0611573988,"Longitude":-145.7446771571,"Postcode":"N\/A"},{"Factory Name":"Monashka Bay Road","Category":"building","Latitude":57.8035524253,"Longitude":-152.4341627486,"Postcode":"99615"},{"Factory Name":"Old Airport Road","Category":"building","Latitude":64.8357130581,"Longitude":-147.8248230986,"Postcode":"99701"},{"Factory Name":"Wilbur Street","Category":"building","Latitude":64.8387331632,"Longitude":-147.7637123754,"Postcode":"99701"},{"Factory Name":"Fox Avenue","Category":"production","Latitude":64.8481461991,"Longitude":-147.7593521,"Postcode":"99707"},{"Factory Name":"N\/A","Category":"production","Latitude":64.4299141256,"Longitude":-144.8984706317,"Postcode":"N\/A"},{"Factory Name":"N\/A","Category":"production","Latitude":63.3201608519,"Longitude":-142.7928520276,"Postcode":"N\/A"},{"Factory Name":"N\/A","Category":"production","Latitude":64.3565513997,"Longitude":-144.1957327,"Postcode":"N\/A"},{"Factory Name":"Denny Way","Category":"production","Latitude":59.0384498806,"Longitude":-158.4687992104,"Postcode":"95576"},{"Factory Name":"Second Avenue","Category":"building","Latitude":60.7230180017,"Longitude":-135.05451125,"Postcode":"Y1A 2H1"},{"Factory Name":"Mount Sima Road","Category":"building","Latitude":60.6448611043,"Longitude":-135.0317261781,"Postcode":"Y1A 5S8"},{"Factory Name":"Collins Lane","Category":"commercial","Latitude":60.6441285017,"Longitude":-135.0295016,"Postcode":"Y1A 5S8"},{"Factory Name":"Spring Street","Category":"production","Latitude":59.4544207711,"Longitude":-135.3137325556,"Postcode":"99840"},{"Factory Name":"Broadway","Category":"production","Latitude":59.4566250014,"Longitude":-135.3127366,"Postcode":"99840"},{"Factory Name":"N\/A","Category":"production","Latitude":58.2953620009,"Longitude":-134.3988179,"Postcode":"N\/A"},{"Factory Name":"Smith Street","Category":"production","Latitude":57.0490157003,"Longitude":-135.3100931,"Postcode":"99835"},{"Factory Name":"Breakwater Road","Category":"building","Latitude":55.1293801809,"Longitude":-131.5723074678,"Postcode":"99926"}]