[{"Business Name":"Sixth Avenue Outfitters Co-op","Category":"commercial","Latitude":61.2163074017,"Longitude":-149.8922993,"Postcode":"99501"},{"Business Name":"Alaska eBike","Category":"commercial","Latitude":61.2004174017,"Longitude":-149.9074687,"Postcode":"99503"},{"Business Name":"Alaska Mountaineering & Hiking","Category":"building","Latitude":61.1966189175,"Longitude":-149.904815772,"Postcode":"99503"},{"Business Name":"Play It Again Sports","Category":"commercial","Latitude":61.1965666017,"Longitude":-149.9059781,"Postcode":"99517"},{"Business Name":"The Bicycle Shop","Category":"building","Latitude":61.1955835017,"Longitude":-149.90260555,"Postcode":"99503"},{"Business Name":"The Hoarding Marmot","Category":"commercial","Latitude":61.1956439017,"Longitude":-149.9072745,"Postcode":"99503"},{"Business Name":"Speedway Cycles","Category":"commercial","Latitude":61.1956165017,"Longitude":-149.9077359,"Postcode":"99503"},{"Business Name":"AK Cycle Chic","Category":"commercial","Latitude":61.1950105017,"Longitude":-149.9020856,"Postcode":"99503"},{"Business Name":"B & J Sporting Goods","Category":"commercial","Latitude":61.1956795017,"Longitude":-149.884993,"Postcode":"99503"},{"Business Name":"REI","Category":"building","Latitude":61.1942844469,"Longitude":-149.8753048119,"Postcode":"99599"},{"Business Name":"Off the Chain Bicycle Collective","Category":"building","Latitude":61.1900786017,"Longitude":-149.9102479,"Postcode":"99503"},{"Business Name":"Trek","Category":"commercial","Latitude":61.1924683017,"Longitude":-149.874117,"Postcode":"99503"},{"Business Name":"N\/A","Category":"commercial","Latitude":61.1924382017,"Longitude":-149.8739495,"Postcode":"99599"},{"Business Name":"Champion's Choice","Category":"commercial","Latitude":61.1893103017,"Longitude":-149.896456,"Postcode":"99503"},{"Business Name":"Alaska Raft and Kayak","Category":"building","Latitude":61.1811953262,"Longitude":-149.8919099759,"Postcode":"99517"},{"Business Name":"Bass Pro Shops","Category":"building","Latitude":61.2192489134,"Longitude":-149.8209443102,"Postcode":"99598"},{"Business Name":"Alaska Outdoor Gear","Category":"commercial","Latitude":61.1704154017,"Longitude":-149.8928529,"Postcode":"99518"},{"Business Name":"APU Outdoor Gear Room","Category":"building","Latitude":61.1910119982,"Longitude":-149.8034511449,"Postcode":"99508"},{"Business Name":"Trax Outdoor Center 2.0","Category":"commercial","Latitude":61.1598561017,"Longitude":-149.9531125,"Postcode":"99502"},{"Business Name":"Mossy's Fly Shop","Category":"commercial","Latitude":61.1434730017,"Longitude":-149.8936854,"Postcode":"99515"},{"Business Name":"Sportsman's Warehouse","Category":"commercial","Latitude":61.1420791017,"Longitude":-149.8596683,"Postcode":"99515"},{"Business Name":"The Bike Shop","Category":"commercial","Latitude":61.1390489017,"Longitude":-149.9136918,"Postcode":"99515"},{"Business Name":"Skinny Raven","Category":"commercial","Latitude":61.1377685017,"Longitude":-149.9307785,"Postcode":"88515"},{"Business Name":"Full Swing Golf","Category":"building","Latitude":61.1359277742,"Longitude":-149.8652192867,"Postcode":"99515"},{"Business Name":"Cabela's","Category":"building","Latitude":61.1273680771,"Longitude":-149.8803713657,"Postcode":"99515"},{"Business Name":"Mountain View Sports","Category":"commercial","Latitude":61.1201138017,"Longitude":-149.8669515,"Postcode":"99515"},{"Business Name":"Chain Reaction Cycle","Category":"commercial","Latitude":61.1105013017,"Longitude":-149.8609357,"Postcode":"99515"},{"Business Name":"Paramount Cycles","Category":"commercial","Latitude":61.1098184017,"Longitude":-149.8584241,"Postcode":"99515"},{"Business Name":"Chain Reaction Cycles","Category":"building","Latitude":61.108297151,"Longitude":-149.8591618455,"Postcode":"99515"},{"Business Name":"Full Curl Archery LLC","Category":"commercial","Latitude":61.1075599017,"Longitude":-149.861581,"Postcode":"99515"},{"Business Name":"N\/A","Category":"building","Latitude":61.5852545119,"Longitude":-149.4544681667,"Postcode":"99654"},{"Business Name":"Sportsman's Warehouse","Category":"building","Latitude":61.5763817415,"Longitude":-149.3991446789,"Postcode":"99654"},{"Business Name":"Play It Again Sports","Category":"commercial","Latitude":61.5674270017,"Longitude":-149.359276,"Postcode":"N\/A"},{"Business Name":"Backcountry Bike and Ski","Category":"building","Latitude":61.6065064458,"Longitude":-149.1158621528,"Postcode":"99645"},{"Business Name":"Lake View Outfitters","Category":"commercial","Latitude":60.4942613017,"Longitude":-149.7926592,"Postcode":"N\/A"},{"Business Name":"Kenai Cache","Category":"building","Latitude":60.4816942017,"Longitude":-149.920562,"Postcode":"N\/A"},{"Business Name":"Sportsman's Warehouse","Category":"building","Latitude":60.4843803294,"Longitude":-151.0701081116,"Postcode":"99669"},{"Business Name":"Wilderness Way","Category":"commercial","Latitude":60.4838757017,"Longitude":-151.068695,"Postcode":"99669"},{"Business Name":"Ken's Alaskan Tackle","Category":"commercial","Latitude":60.4755398017,"Longitude":-151.0827356,"Postcode":"99669"},{"Business Name":"Valdez Marine & Outdoors","Category":"commercial","Latitude":61.1287349017,"Longitude":-146.3578704,"Postcode":"99686"},{"Business Name":"Fly Box","Category":"building","Latitude":59.7848478516,"Longitude":-151.8346801,"Postcode":"N\/A"},{"Business Name":"Homer Saw & Cycle","Category":"commercial","Latitude":59.6402204015,"Longitude":-151.503287,"Postcode":"99603"},{"Business Name":"Cycle Logical","Category":"building","Latitude":59.6466024432,"Longitude":-151.5379080606,"Postcode":"N\/A"},{"Business Name":"LoopEride","Category":"commercial","Latitude":59.6395297015,"Longitude":-151.5413708,"Postcode":"N\/A"},{"Business Name":"Sport Shed, Tackle, Bait, Licenses","Category":"building","Latitude":59.6079149447,"Longitude":-151.4384133315,"Postcode":"N\/A"},{"Business Name":"Denali Mountain Works","Category":"building","Latitude":63.7487399766,"Longitude":-148.8994217129,"Postcode":"N\/A"},{"Business Name":"Granite View","Category":"building","Latitude":64.0355365527,"Longitude":-145.7332984539,"Postcode":"N\/A"},{"Business Name":"Big Rays","Category":"commercial","Latitude":57.7908450007,"Longitude":-152.4053399,"Postcode":"99615"},{"Business Name":"Big Ray's Outlet Center","Category":"building","Latitude":64.8374512975,"Longitude":-147.7976886834,"Postcode":"99701"},{"Business Name":"Beaver Sports","Category":"building","Latitude":64.8568040923,"Longitude":-147.8069649551,"Postcode":"N\/A"},{"Business Name":"Beaver Sports Paddle Center","Category":"building","Latitude":64.8573843619,"Longitude":-147.8062847242,"Postcode":"99775"},{"Business Name":"REI","Category":"building","Latitude":64.8496278119,"Longitude":-147.7031868494,"Postcode":"99701"},{"Business Name":"Sportsman's Warehouse","Category":"building","Latitude":64.856576535,"Longitude":-147.6984806384,"Postcode":"99701"},{"Business Name":"Goldstream Sports","Category":"building","Latitude":64.8901168806,"Longitude":-147.9413793504,"Postcode":"99709"},{"Business Name":"Three Bears Outpost","Category":"building","Latitude":63.3333215778,"Longitude":-142.9635781364,"Postcode":"N\/A"},{"Business Name":"LFS","Category":"building","Latitude":58.7440633326,"Longitude":-156.9497930182,"Postcode":"99633"},{"Business Name":"Stocked Lake","Category":"commercial","Latitude":62.1884872015,"Longitude":-136.3878863,"Postcode":"Y0B 1C0"},{"Business Name":"Emmonak Corporation","Category":"building","Latitude":62.7758375532,"Longitude":-164.5250553186,"Postcode":"99581"},{"Business Name":"Changing Gear","Category":"building","Latitude":60.7368131017,"Longitude":-135.10019575,"Postcode":"Y1A 5B7"},{"Business Name":"Icycle Sports","Category":"commercial","Latitude":60.7307796017,"Longitude":-135.064196,"Postcode":"Y1A 1C8"},{"Business Name":"Cadence Cycle","Category":"building","Latitude":60.7190005517,"Longitude":-135.0596164,"Postcode":"Y1A 2E1"},{"Business Name":"Coast Mountain Sports","Category":"commercial","Latitude":60.7188228017,"Longitude":-135.055621,"Postcode":"Y1A 2B4"},{"Business Name":"Up North Adventures","Category":"commercial","Latitude":60.7228588017,"Longitude":-135.0536499,"Postcode":"Y1A 2J9"},{"Business Name":"Hougenâ€™s Sportslodge","Category":"commercial","Latitude":60.7197048017,"Longitude":-135.053436,"Postcode":"Y1A 2B6"},{"Business Name":"The Mountain Shop","Category":"commercial","Latitude":59.4551239014,"Longitude":-135.3172969,"Postcode":"99840"},{"Business Name":"Alaska Mountain Guides","Category":"building","Latitude":59.2344721514,"Longitude":-135.4753656,"Postcode":"N\/A"},{"Business Name":"Alaska Backcountry Outfitters","Category":"building","Latitude":59.2339932161,"Longitude":-135.445937364,"Postcode":"N\/A"},{"Business Name":"Alaska Mountain Guides","Category":"commercial","Latitude":59.2289575014,"Longitude":-135.4448598,"Postcode":"N\/A"},{"Business Name":"Sockeye Cycle","Category":"commercial","Latitude":59.2272892014,"Longitude":-135.4409255,"Postcode":"N\/A"},{"Business Name":"Tideland Tackle & Marine","Category":"commercial","Latitude":58.1081020008,"Longitude":-135.4442977,"Postcode":"99829"},{"Business Name":"Sportsman's Warehouse","Category":"commercial","Latitude":58.362363201,"Longitude":-134.575535,"Postcode":"99801"},{"Business Name":"Alaska Fly Fishing Goods","Category":"commercial","Latitude":58.361777301,"Longitude":-134.5723397,"Postcode":"99801"},{"Business Name":"Cycle Alaska","Category":"commercial","Latitude":58.2998136009,"Longitude":-134.4235994,"Postcode":"99801"},{"Business Name":"Orion's Sporting Goods","Category":"commercial","Latitude":57.0573017003,"Longitude":-135.34681,"Postcode":"99835"},{"Business Name":"Russel's","Category":"commercial","Latitude":57.0496765003,"Longitude":-135.3362777,"Postcode":"99835"},{"Business Name":"Yellow Jersey Cycle Shop","Category":"commercial","Latitude":57.0501370003,"Longitude":-135.3335291,"Postcode":"99835"},{"Business Name":"Angerman's","Category":"building","Latitude":56.4718210498,"Longitude":-132.3870343348,"Postcode":"99929"},{"Business Name":"Eskimo Sports","Category":"commercial","Latitude":71.298676203,"Longitude":-156.7714729,"Postcode":"99273"},{"Business Name":"Out to Sea Expedition Company","Category":"commercial","Latitude":55.3394701995,"Longitude":-131.639655,"Postcode":"99901"},{"Business Name":"Ocean Fisheries Ltd. Royal Plant","Category":"commercial","Latitude":54.3197589992,"Longitude":-130.3151125,"Postcode":"V8J 1A3"},{"Business Name":"J &E's Tackle - Hunting Fishing Archery","Category":"commercial","Latitude":54.3087528992,"Longitude":-130.3314487,"Postcode":"V8J 1M9"},{"Business Name":"Fish Tales Tackle Shop","Category":"commercial","Latitude":54.5136374993,"Longitude":-128.5918705,"Postcode":"V8G 4K1"},{"Business Name":"All Seasons Sporting Goods","Category":"building","Latitude":54.5162919219,"Longitude":-128.5862167847,"Postcode":"V8G 1P8"},{"Business Name":"Bradley's Bait & Tackle","Category":"commercial","Latitude":54.0540626992,"Longitude":-128.6546174,"Postcode":"V8C 1T6"},{"Business Name":"N\/A","Category":"commercial","Latitude":54.9414921994,"Longitude":-127.3248862,"Postcode":"V0J 3P0"},{"Business Name":"McBike & Sport","Category":"commercial","Latitude":54.7802711994,"Longitude":-127.171193,"Postcode":"V0J 3W0"},{"Business Name":"BV Outdoor Essentials Ltd.","Category":"commercial","Latitude":54.7805308994,"Longitude":-127.170382,"Postcode":"V0J 3W0"},{"Business Name":"COB Bikes","Category":"commercial","Latitude":54.7789882994,"Longitude":-127.1712254,"Postcode":"V0J 3W0"},{"Business Name":"N\/A","Category":"commercial","Latitude":54.5172468993,"Longitude":-126.8387605,"Postcode":"N\/A"},{"Business Name":"N\/A","Category":"commercial","Latitude":54.3759705993,"Longitude":-126.7495424,"Postcode":"N\/A"}]