[{"Tourism Name":"N\/A","Category":"tourism","Latitude":61.2186782017,"Longitude":-149.899272,"Postcode":"99501"},{"Tourism Name":"N\/A","Category":"tourism","Latitude":61.2187011017,"Longitude":-149.899182,"Postcode":"99501"},{"Tourism Name":"N\/A","Category":"tourism","Latitude":61.2173985017,"Longitude":-149.8986531,"Postcode":"99501"},{"Tourism Name":"Captain Cook Monument","Category":"building","Latitude":61.2193109581,"Longitude":-149.9040563192,"Postcode":"99501"},{"Tourism Name":"Captain Cook Monument","Category":"tourism","Latitude":61.2192845017,"Longitude":-149.9039486,"Postcode":"99501"},{"Tourism Name":"N\/A","Category":"tourism","Latitude":61.2184285017,"Longitude":-149.895764,"Postcode":"99501"},{"Tourism Name":"Anchorage Light Speed Planet Walk","Category":"tourism","Latitude":61.2173304017,"Longitude":-149.8951977,"Postcode":"99501"},{"Tourism Name":"N\/A","Category":"tourism","Latitude":61.2181733017,"Longitude":-149.8932319,"Postcode":"99501"},{"Tourism Name":"Historic City Hall","Category":"building","Latitude":61.2181809196,"Longitude":-149.8926554898,"Postcode":"99501"},{"Tourism Name":"N\/A","Category":"tourism","Latitude":61.2182741017,"Longitude":-149.8930011,"Postcode":"99501"},{"Tourism Name":"Sub Zero","Category":"catering","Latitude":61.2162361017,"Longitude":-149.893676,"Postcode":"99501"},{"Tourism Name":"Flight of the Raven","Category":"tourism","Latitude":61.2183556017,"Longitude":-149.8921931,"Postcode":"99501"},{"Tourism Name":"N\/A","Category":"tourism","Latitude":61.2177683017,"Longitude":-149.9087639,"Postcode":"99501"},{"Tourism Name":"Kimball Building","Category":"building","Latitude":61.2173420653,"Longitude":-149.8917301521,"Postcode":"99501"},{"Tourism Name":"N\/A","Category":"tourism","Latitude":61.2145143017,"Longitude":-149.9062885,"Postcode":"99501"},{"Tourism Name":"Focus on Statehood","Category":"tourism","Latitude":61.2156622017,"Longitude":-149.8921854,"Postcode":"99501"},{"Tourism Name":"Anchorage Veteran's Memorial","Category":"tourism","Latitude":61.2131722517,"Longitude":-149.90026615,"Postcode":"99501"},{"Tourism Name":"Reflections on the Great One","Category":"tourism","Latitude":61.2132067017,"Longitude":-149.9002735,"Postcode":"99501"},{"Tourism Name":"Given…by the Great Land","Category":"tourism","Latitude":61.2131832769,"Longitude":-149.8999463813,"Postcode":"99501"},{"Tourism Name":"N\/A","Category":"tourism","Latitude":61.2199897017,"Longitude":-149.890895,"Postcode":"99501"},{"Tourism Name":"O’er Land and Sea a Beacon Bright","Category":"tourism","Latitude":61.2131509017,"Longitude":-149.9002586,"Postcode":"99501"},{"Tourism Name":"Martin Luther King Jr. Memorial","Category":"tourism","Latitude":61.2131918265,"Longitude":-149.9032269068,"Postcode":"99501"},{"Tourism Name":"Wendler Building","Category":"building","Latitude":61.2183402115,"Longitude":-149.889637725,"Postcode":"99501"},{"Tourism Name":"Racing in the Footsteps of a Legend","Category":"tourism","Latitude":61.2184720017,"Longitude":-149.889722,"Postcode":"99501"},{"Tourism Name":"Eisenhower Alaska Statehood Monument","Category":"tourism","Latitude":61.2206448017,"Longitude":-149.8910299,"Postcode":"99501"},{"Tourism Name":"Ship Creek Overlook","Category":"tourism","Latitude":61.2206804017,"Longitude":-149.8910228,"Postcode":"99501"},{"Tourism Name":"James J. Delaney Memorial","Category":"tourism","Latitude":61.2128506017,"Longitude":-149.8994128,"Postcode":"99513"},{"Tourism Name":"Ceremonial Start of Iditarod Trail Sled Dog Race","Category":"tourism","Latitude":61.2185486017,"Longitude":-149.8893628,"Postcode":"99501"},{"Tourism Name":"N\/A","Category":"tourism","Latitude":61.2187659017,"Longitude":-149.8892717,"Postcode":"99501"},{"Tourism Name":"N\/A","Category":"tourism","Latitude":61.2213384017,"Longitude":-149.8906057,"Postcode":"99501"},{"Tourism Name":"N\/A","Category":"tourism","Latitude":61.2212999017,"Longitude":-149.8904711,"Postcode":"99501"},{"Tourism Name":"N\/A","Category":"tourism","Latitude":61.2186122017,"Longitude":-149.888475,"Postcode":"99501"},{"Tourism Name":"N\/A","Category":"tourism","Latitude":61.2213393017,"Longitude":-149.890345,"Postcode":"99501"},{"Tourism Name":"Commemorative Plaque of Pope John Paul II Visit","Category":"tourism","Latitude":61.213172254,"Longitude":-149.9075719248,"Postcode":"99501"},{"Tourism Name":"Alaska Railroad No. 556 - Steam Locomotive","Category":"tourism","Latitude":61.2133770017,"Longitude":-149.891006,"Postcode":"99501"},{"Tourism Name":"N\/A","Category":"tourism","Latitude":61.2164400017,"Longitude":-149.8868845,"Postcode":"99501"},{"Tourism Name":"N\/A","Category":"tourism","Latitude":61.2257538017,"Longitude":-149.9064038,"Postcode":"99501"},{"Tourism Name":"N\/A","Category":"tourism","Latitude":61.2164239307,"Longitude":-149.8834497416,"Postcode":"99501"},{"Tourism Name":"N\/A","Category":"tourism","Latitude":61.2227656017,"Longitude":-149.885924,"Postcode":"99501"},{"Tourism Name":"N\/A","Category":"tourism","Latitude":61.2157264017,"Longitude":-149.8836526,"Postcode":"99513"},{"Tourism Name":"N\/A","Category":"tourism","Latitude":61.2178056017,"Longitude":-149.8827299,"Postcode":"99513"},{"Tourism Name":"N\/A","Category":"tourism","Latitude":61.2091147017,"Longitude":-149.901504,"Postcode":"99501"},{"Tourism Name":"N\/A","Category":"tourism","Latitude":61.2092703017,"Longitude":-149.891221,"Postcode":"99501"},{"Tourism Name":"N\/A","Category":"tourism","Latitude":61.2274261017,"Longitude":-149.88957,"Postcode":"99501"},{"Tourism Name":"N\/A","Category":"tourism","Latitude":61.2102848017,"Longitude":-149.919407,"Postcode":"99517"},{"Tourism Name":"N\/A","Category":"tourism","Latitude":61.2045862078,"Longitude":-149.9058148817,"Postcode":"99501"},{"Tourism Name":"Westchester Lagoon Nature viewing platform","Category":"tourism","Latitude":61.2072260017,"Longitude":-149.9186218,"Postcode":"99517"},{"Tourism Name":"N\/A","Category":"tourism","Latitude":61.2040226517,"Longitude":-149.90376835,"Postcode":"99501"},{"Tourism Name":"Chanshtnu Indigenous Placename Marker","Category":"tourism","Latitude":61.2080878017,"Longitude":-149.9212345,"Postcode":"99517"},{"Tourism Name":"\"Transformation\"","Category":"tourism","Latitude":61.2086784017,"Longitude":-149.9227842,"Postcode":"99517"},{"Tourism Name":"N\/A","Category":"tourism","Latitude":61.2076522017,"Longitude":-149.9241496,"Postcode":"99517"},{"Tourism Name":"N\/A","Category":"tourism","Latitude":61.2062838017,"Longitude":-149.924169,"Postcode":"99517"},{"Tourism Name":"N\/A","Category":"tourism","Latitude":61.2062189017,"Longitude":-149.9257814,"Postcode":"99517"},{"Tourism Name":"N\/A","Category":"tourism","Latitude":61.2064786017,"Longitude":-149.9294492,"Postcode":"99517"},{"Tourism Name":"N\/A","Category":"tourism","Latitude":61.2058895017,"Longitude":-149.9335208,"Postcode":"99517"},{"Tourism Name":"N\/A","Category":"tourism","Latitude":61.2180569017,"Longitude":-149.854055,"Postcode":"88591"},{"Tourism Name":"Benny Benson Memorial","Category":"tourism","Latitude":61.1938298017,"Longitude":-149.9126921,"Postcode":"99517"},{"Tourism Name":"N\/A","Category":"tourism","Latitude":61.1936055017,"Longitude":-149.8863312,"Postcode":"99503"},{"Tourism Name":"N\/A","Category":"tourism","Latitude":61.1923794017,"Longitude":-149.9050839,"Postcode":"99517"},{"Tourism Name":"Saturn","Category":"tourism","Latitude":61.2031878017,"Longitude":-149.9466546,"Postcode":"99517"},{"Tourism Name":"N\/A","Category":"tourism","Latitude":61.2029154017,"Longitude":-149.9484446,"Postcode":"99517"},{"Tourism Name":"N\/A","Category":"tourism","Latitude":61.1878635017,"Longitude":-149.9091662,"Postcode":"99517"},{"Tourism Name":"Ch'atanaltsegh: where yellow water comes out","Category":"tourism","Latitude":61.1881495017,"Longitude":-149.9313597,"Postcode":"99517"},{"Tourism Name":"N\/A","Category":"tourism","Latitude":61.1870995017,"Longitude":-149.866701,"Postcode":"99599"},{"Tourism Name":"N\/A","Category":"tourism","Latitude":61.1871533017,"Longitude":-149.866307,"Postcode":"99599"},{"Tourism Name":"N\/A","Category":"tourism","Latitude":61.1817416017,"Longitude":-149.9328056,"Postcode":"99517"},{"Tourism Name":"Fish Creek Tunnel Art","Category":"tourism","Latitude":61.1817420017,"Longitude":-149.9347288,"Postcode":"99517"},{"Tourism Name":"N\/A","Category":"tourism","Latitude":61.1992350017,"Longitude":-149.974018,"Postcode":"99530"},{"Tourism Name":"N\/A","Category":"tourism","Latitude":61.1788624017,"Longitude":-149.9283011,"Postcode":"99517"},{"Tourism Name":"Raven","Category":"tourism","Latitude":61.1784294017,"Longitude":-149.9285447,"Postcode":"99517"},{"Tourism Name":"N\/A","Category":"tourism","Latitude":61.1969595017,"Longitude":-149.9783876,"Postcode":"99530"},{"Tourism Name":"N\/A","Category":"tourism","Latitude":61.1976074017,"Longitude":-149.979194,"Postcode":"99530"},{"Tourism Name":"N\/A","Category":"tourism","Latitude":61.1985092017,"Longitude":-149.9801909,"Postcode":"99530"},{"Tourism Name":"N\/A","Category":"tourism","Latitude":61.1984543017,"Longitude":-149.980226,"Postcode":"99530"},{"Tourism Name":"N\/A","Category":"tourism","Latitude":61.1985027017,"Longitude":-149.9811134,"Postcode":"99530"},{"Tourism Name":"N\/A","Category":"tourism","Latitude":61.1885936017,"Longitude":-149.832159,"Postcode":"99508"},{"Tourism Name":"N\/A","Category":"tourism","Latitude":61.1885938017,"Longitude":-149.832078,"Postcode":"99508"},{"Tourism Name":"N\/A","Category":"tourism","Latitude":61.1892999017,"Longitude":-149.8290658,"Postcode":"99508"},{"Tourism Name":"N\/A","Category":"tourism","Latitude":61.1725871017,"Longitude":-149.8959335,"Postcode":"99503"},{"Tourism Name":"Hugh M. Elmendorf monument","Category":"tourism","Latitude":61.2401728506,"Longitude":-149.8166695516,"Postcode":"99506"},{"Tourism Name":"N\/A","Category":"tourism","Latitude":61.1767243017,"Longitude":-149.942017,"Postcode":"99517"},{"Tourism Name":"Nixon-Hirohito monument","Category":"tourism","Latitude":61.2414451017,"Longitude":-149.817005,"Postcode":"99506"},{"Tourism Name":"N\/A","Category":"tourism","Latitude":61.1914634017,"Longitude":-149.8209596,"Postcode":"99508"},{"Tourism Name":"N\/A","Category":"tourism","Latitude":61.1756341017,"Longitude":-149.8544905,"Postcode":"99599"},{"Tourism Name":"N\/A","Category":"tourism","Latitude":61.1725254017,"Longitude":-149.868544,"Postcode":"99518"},{"Tourism Name":"N\/A","Category":"tourism","Latitude":61.1992845017,"Longitude":-149.99287,"Postcode":"99530"},{"Tourism Name":"N\/A","Category":"tourism","Latitude":61.1993825017,"Longitude":-149.9934109,"Postcode":"99530"},{"Tourism Name":"N\/A","Category":"tourism","Latitude":61.1747649017,"Longitude":-149.947876,"Postcode":"99517"},{"Tourism Name":"N\/A","Category":"tourism","Latitude":61.1747610017,"Longitude":-149.948043,"Postcode":"99517"},{"Tourism Name":"Snowshoe","Category":"tourism","Latitude":61.1899852017,"Longitude":-149.816729,"Postcode":"99508"},{"Tourism Name":"Nothern Air Cargo DC-6","Category":"tourism","Latitude":61.1746775017,"Longitude":-149.9498962,"Postcode":"99517"},{"Tourism Name":"N\/A","Category":"tourism","Latitude":61.1919231017,"Longitude":-149.8125318,"Postcode":"99508"},{"Tourism Name":"N\/A","Category":"tourism","Latitude":61.2258744017,"Longitude":-149.7976419,"Postcode":"99598"},{"Tourism Name":"N\/A","Category":"tourism","Latitude":61.1968132973,"Longitude":-150.0029889498,"Postcode":"99530"},{"Tourism Name":"N\/A","Category":"tourism","Latitude":61.1970242017,"Longitude":-150.002947,"Postcode":"99530"},{"Tourism Name":"C-130 Hercules","Category":"tourism","Latitude":61.2472222017,"Longitude":-149.802727,"Postcode":"99506"},{"Tourism Name":"F-102 Delta Dagger","Category":"tourism","Latitude":61.2475649017,"Longitude":-149.802514,"Postcode":"99506"},{"Tourism Name":"F-89 Scorpion","Category":"tourism","Latitude":61.2474386017,"Longitude":-149.8023049,"Postcode":"99506"},{"Tourism Name":"T-33 Tee Bird","Category":"tourism","Latitude":61.2473509017,"Longitude":-149.8020013,"Postcode":"99506"},{"Tourism Name":"F-4 Phantom II","Category":"tourism","Latitude":61.2477043017,"Longitude":-149.802451,"Postcode":"99506"},{"Tourism Name":"N\/A","Category":"tourism","Latitude":61.2028222017,"Longitude":-150.0113776,"Postcode":"99530"},{"Tourism Name":"F-15 Eagle","Category":"tourism","Latitude":61.2473678017,"Longitude":-149.8017287,"Postcode":"99506"},{"Tourism Name":"McCloud Memorial","Category":"tourism","Latitude":61.2482969731,"Longitude":-149.8018748095,"Postcode":"99506"},{"Tourism Name":"Temnac P-38G Lightning","Category":"tourism","Latitude":61.2482922017,"Longitude":-149.80187,"Postcode":"99506"},{"Tourism Name":"POW-MIA memorial","Category":"tourism","Latitude":61.2483843429,"Longitude":-149.8014728515,"Postcode":"99506"},{"Tourism Name":"Wall of Heroes","Category":"tourism","Latitude":61.2483828017,"Longitude":-149.8014761,"Postcode":"99506"},{"Tourism Name":"YUKLA 27 Memorial","Category":"tourism","Latitude":61.2477939561,"Longitude":-149.8003615365,"Postcode":"99506"},{"Tourism Name":"E-3 Sentry","Category":"tourism","Latitude":61.2477954017,"Longitude":-149.800369,"Postcode":"99506"},{"Tourism Name":"N\/A","Category":"tourism","Latitude":61.2034721017,"Longitude":-150.0157423,"Postcode":"99530"},{"Tourism Name":"N\/A","Category":"tourism","Latitude":61.2035869017,"Longitude":-150.0169191,"Postcode":"99530"},{"Tourism Name":"N\/A","Category":"tourism","Latitude":61.1746158017,"Longitude":-149.9822638,"Postcode":"99530"},{"Tourism Name":"N\/A","Category":"tourism","Latitude":61.2021947017,"Longitude":-150.021177,"Postcode":"99530"},{"Tourism Name":"N\/A","Category":"tourism","Latitude":61.1964179017,"Longitude":-149.778004,"Postcode":"99521"},{"Tourism Name":"N\/A","Category":"tourism","Latitude":61.1813097017,"Longitude":-149.7944366,"Postcode":"99504"},{"Tourism Name":"N\/A","Category":"tourism","Latitude":61.2141618017,"Longitude":-149.764473,"Postcode":"99521"},{"Tourism Name":"N\/A","Category":"tourism","Latitude":61.2142241017,"Longitude":-149.764402,"Postcode":"99521"},{"Tourism Name":"N\/A","Category":"tourism","Latitude":61.1485114017,"Longitude":-149.8488967,"Postcode":"99507"},{"Tourism Name":"N\/A","Category":"tourism","Latitude":61.1744055017,"Longitude":-150.032649,"Postcode":"99530"},{"Tourism Name":"Portal: Drop Assembly #5","Category":"tourism","Latitude":61.1773083017,"Longitude":-149.7617933,"Postcode":"99507"},{"Tourism Name":"N\/A","Category":"tourism","Latitude":61.1775957017,"Longitude":-149.7613873,"Postcode":"99507"},{"Tourism Name":"Listening to Stone: Stone Waveform","Category":"tourism","Latitude":61.1773683017,"Longitude":-149.7612808,"Postcode":"99507"},{"Tourism Name":"Night and Day","Category":"tourism","Latitude":61.1767029017,"Longitude":-149.7617907,"Postcode":"99507"},{"Tourism Name":"Night and Day","Category":"tourism","Latitude":61.1767175017,"Longitude":-149.7617002,"Postcode":"99507"},{"Tourism Name":"VW Flower Bus","Category":"tourism","Latitude":61.1762229017,"Longitude":-149.7612872,"Postcode":"99507"},{"Tourism Name":"Ursus botanicus","Category":"tourism","Latitude":61.1777016017,"Longitude":-149.7590774,"Postcode":"99507"},{"Tourism Name":"Chevy Truck","Category":"tourism","Latitude":61.1772960017,"Longitude":-149.7591833,"Postcode":"99507"},{"Tourism Name":"Indigenous Placename Marker, Chanshtnu","Category":"tourism","Latitude":61.2089599017,"Longitude":-149.7313413,"Postcode":"99504"},{"Tourism Name":"Cradle Of Defense","Category":"tourism","Latitude":61.1544586017,"Longitude":-150.034749,"Postcode":"99502"},{"Tourism Name":"Sandhill Blind","Category":"tourism","Latitude":61.1313373017,"Longitude":-149.9620824,"Postcode":"88515"},{"Tourism Name":"Ecotone Platform","Category":"tourism","Latitude":61.1313955017,"Longitude":-149.9665902,"Postcode":"N\/A"},{"Tourism Name":"Beluga Overlook","Category":"tourism","Latitude":61.1310045017,"Longitude":-149.9656259,"Postcode":"N\/A"},{"Tourism Name":"N\/A","Category":"tourism","Latitude":61.1295832017,"Longitude":-149.830215,"Postcode":"99507"},{"Tourism Name":"N\/A","Category":"tourism","Latitude":61.1244504017,"Longitude":-149.943173,"Postcode":"88515"},{"Tourism Name":"N\/A","Category":"tourism","Latitude":61.1239738017,"Longitude":-149.849002,"Postcode":"99515"},{"Tourism Name":"N\/A","Category":"tourism","Latitude":61.1239138017,"Longitude":-149.848903,"Postcode":"99515"},{"Tourism Name":"N\/A","Category":"tourism","Latitude":61.1541967017,"Longitude":-150.0555898,"Postcode":"99502"},{"Tourism Name":"Dall Sheep","Category":"tourism","Latitude":61.1262954017,"Longitude":-149.793054,"Postcode":"99507"},{"Tourism Name":"N\/A","Category":"tourism","Latitude":61.1114077017,"Longitude":-149.9219866,"Postcode":"99515"},{"Tourism Name":"N\/A","Category":"tourism","Latitude":61.2657066017,"Longitude":-149.6631559,"Postcode":"99505"},{"Tourism Name":"N\/A","Category":"tourism","Latitude":61.1304827017,"Longitude":-149.6978451,"Postcode":"N\/A"},{"Tourism Name":"N\/A","Category":"tourism","Latitude":61.2718739017,"Longitude":-149.6415156,"Postcode":"99505"},{"Tourism Name":"N\/A","Category":"tourism","Latitude":61.2723375017,"Longitude":-149.6396941,"Postcode":"99505"},{"Tourism Name":"N\/A","Category":"tourism","Latitude":61.0694451017,"Longitude":-149.8239145,"Postcode":"99516"},{"Tourism Name":"Flattop Lookout","Category":"tourism","Latitude":61.1048868017,"Longitude":-149.684606,"Postcode":"N\/A"},{"Tourism Name":"N\/A","Category":"tourism","Latitude":61.0618770017,"Longitude":-149.8087867,"Postcode":"99516"},{"Tourism Name":"Potter's Marsh","Category":"tourism","Latitude":61.0593350017,"Longitude":-149.8042317,"Postcode":"99516"},{"Tourism Name":"Nike Site Summit","Category":"tourism","Latitude":61.2479697017,"Longitude":-149.548195,"Postcode":"N\/A"},{"Tourism Name":"Potter Historic Site","Category":"tourism","Latitude":61.0519901017,"Longitude":-149.7969771,"Postcode":"99516"},{"Tourism Name":"N\/A","Category":"tourism","Latitude":61.0480150017,"Longitude":-149.7924191,"Postcode":"99516"},{"Tourism Name":"Nike Site Summit Launch Control Building","Category":"building","Latitude":61.2580547257,"Longitude":-149.527927796,"Postcode":"N\/A"},{"Tourism Name":"Nike Rocket Booster","Category":"tourism","Latitude":61.2368820017,"Longitude":-149.5156113,"Postcode":"N\/A"},{"Tourism Name":"N\/A","Category":"tourism","Latitude":61.0403523017,"Longitude":-149.7817368,"Postcode":"N\/A"},{"Tourism Name":"Nike Rocket Booster","Category":"tourism","Latitude":61.2364927017,"Longitude":-149.5062853,"Postcode":"N\/A"},{"Tourism Name":"Nike Rocket Booster","Category":"tourism","Latitude":61.2365608017,"Longitude":-149.5050887,"Postcode":"N\/A"},{"Tourism Name":"South Fork Falls Overlook","Category":"tourism","Latitude":61.2862640017,"Longitude":-149.4750755,"Postcode":"N\/A"},{"Tourism Name":"N\/A","Category":"tourism","Latitude":61.0169942017,"Longitude":-149.7345168,"Postcode":"N\/A"},{"Tourism Name":"Bruce Aaron Roberts","Category":"man_made","Latitude":61.3814024017,"Longitude":-149.5671764,"Postcode":"99567"},{"Tourism Name":"Wallace Homestead","Category":"building","Latitude":61.3424418688,"Longitude":-149.4936781154,"Postcode":"N\/A"},{"Tourism Name":"Beluga Point Viewpoint","Category":"tourism","Latitude":61.0066557017,"Longitude":-149.6940447,"Postcode":"N\/A"},{"Tourism Name":"N\/A","Category":"tourism","Latitude":61.0051631017,"Longitude":-149.6813919,"Postcode":"N\/A"},{"Tourism Name":"N\/A","Category":"tourism","Latitude":61.0027050017,"Longitude":-149.6627989,"Postcode":"N\/A"},{"Tourism Name":"Tucker Point","Category":"tourism","Latitude":61.3115256017,"Longitude":-149.426257,"Postcode":"N\/A"},{"Tourism Name":"N\/A","Category":"tourism","Latitude":60.9982160018,"Longitude":-149.6374327,"Postcode":"N\/A"},{"Tourism Name":"Indian Valley Mine","Category":"tourism","Latitude":60.9854863018,"Longitude":-149.5292524,"Postcode":"99540"},{"Tourism Name":"The Beaver Deck","Category":"tourism","Latitude":61.2324878017,"Longitude":-149.2734684,"Postcode":"N\/A"},{"Tourism Name":"The Salmon Deck","Category":"tourism","Latitude":61.2304627017,"Longitude":-149.2720516,"Postcode":"N\/A"},{"Tourism Name":"N\/A","Category":"tourism","Latitude":61.2100297017,"Longitude":-149.2654533,"Postcode":"N\/A"},{"Tourism Name":"N\/A","Category":"tourism","Latitude":61.4941554017,"Longitude":-149.6099653,"Postcode":"99623"},{"Tourism Name":"Echo Bend","Category":"tourism","Latitude":61.1965413017,"Longitude":-149.248789,"Postcode":"N\/A"},{"Tourism Name":"Eagle River Valley scenic viewpoint","Category":"tourism","Latitude":61.2054053017,"Longitude":-149.2441812,"Postcode":"N\/A"},{"Tourism Name":"Dew Lake Overlook","Category":"tourism","Latitude":61.2051935017,"Longitude":-149.2431211,"Postcode":"N\/A"},{"Tourism Name":"N\/A","Category":"tourism","Latitude":60.9757177018,"Longitude":-149.4761503,"Postcode":"99540"},{"Tourism Name":"N\/A","Category":"tourism","Latitude":60.9175311212,"Longitude":-149.6409008039,"Postcode":"99605"},{"Tourism Name":"Thornton Post Office","Category":"tourism","Latitude":60.9175368018,"Longitude":-149.6409088,"Postcode":"99605"},{"Tourism Name":"Canyon Creek Bunkhouse","Category":"tourism","Latitude":60.9173782018,"Longitude":-149.6415144,"Postcode":"99605"},{"Tourism Name":"N\/A","Category":"tourism","Latitude":60.9171847762,"Longitude":-149.6409857121,"Postcode":"99605"},{"Tourism Name":"N\/A","Category":"tourism","Latitude":60.9172218902,"Longitude":-149.6407476064,"Postcode":"99605"},{"Tourism Name":"Canyon Creek Blacksmith","Category":"tourism","Latitude":60.9171835018,"Longitude":-149.6409962,"Postcode":"99605"},{"Tourism Name":"Canyon Crek Barn","Category":"tourism","Latitude":60.9172207018,"Longitude":-149.6407563,"Postcode":"99605"},{"Tourism Name":"N\/A","Category":"tourism","Latitude":60.9171848399,"Longitude":-149.640613979,"Postcode":"99605"},{"Tourism Name":"Hope Schoolhouse","Category":"tourism","Latitude":60.9171882018,"Longitude":-149.6406205,"Postcode":"99605"},{"Tourism Name":"The Perch","Category":"tourism","Latitude":61.1989400017,"Longitude":-149.222393,"Postcode":"N\/A"},{"Tourism Name":"Upper Perch","Category":"tourism","Latitude":61.1995101017,"Longitude":-149.22083,"Postcode":"N\/A"},{"Tourism Name":"Thunderbird Scenic Viewpoint","Category":"tourism","Latitude":61.4424316017,"Longitude":-149.360502,"Postcode":"N\/A"},{"Tourism Name":"N\/A","Category":"tourism","Latitude":61.4456036017,"Longitude":-149.3658143,"Postcode":"N\/A"},{"Tourism Name":"Thunder Bird Falls","Category":"tourism","Latitude":61.4421543017,"Longitude":-149.3587082,"Postcode":"N\/A"},{"Tourism Name":"N\/A","Category":"tourism","Latitude":60.9238922018,"Longitude":-149.5108463,"Postcode":"99605"},{"Tourism Name":"Eklutna Historical Park","Category":"tourism","Latitude":61.4603875017,"Longitude":-149.3614048,"Postcode":"99567"},{"Tourism Name":"N\/A","Category":"tourism","Latitude":60.9198767018,"Longitude":-149.4921812,"Postcode":"99605"},{"Tourism Name":"Balto","Category":"tourism","Latitude":61.5606322017,"Longitude":-149.4790668,"Postcode":"99687"},{"Tourism Name":"N\/A","Category":"tourism","Latitude":61.5725128017,"Longitude":-149.5185588,"Postcode":"99687"},{"Tourism Name":"Curtis D. Menard Memorial","Category":"tourism","Latitude":61.5729639017,"Longitude":-149.5169103,"Postcode":"99687"},{"Tourism Name":"Gold Star Peak","Category":"tourism","Latitude":61.4458013017,"Longitude":-149.1986642,"Postcode":"N\/A"},{"Tourism Name":"N\/A","Category":"tourism","Latitude":60.9360829018,"Longitude":-149.2879963,"Postcode":"N\/A"},{"Tourism Name":"Salmon watching","Category":"tourism","Latitude":61.5713858172,"Longitude":-149.4412739223,"Postcode":"99654"},{"Tourism Name":"Girdwood Mine","Category":"tourism","Latitude":61.0234639423,"Longitude":-149.1049780227,"Postcode":"99887"},{"Tourism Name":"N\/A","Category":"tourism","Latitude":61.5843222017,"Longitude":-149.4633049,"Postcode":"99654"},{"Tourism Name":"Salmon mosaic","Category":"tourism","Latitude":61.5817230017,"Longitude":-149.4508112,"Postcode":"99654"},{"Tourism Name":"N\/A","Category":"tourism","Latitude":61.5841628017,"Longitude":-149.453279,"Postcode":"99654"},{"Tourism Name":"N\/A","Category":"tourism","Latitude":61.5846935017,"Longitude":-149.4515249,"Postcode":"N\/A"},{"Tourism Name":"N\/A","Category":"tourism","Latitude":61.5829865017,"Longitude":-149.443831,"Postcode":"99654"},{"Tourism Name":"Old Houses of Wasilla","Category":"entertainment","Latitude":61.5828187852,"Longitude":-149.4399171676,"Postcode":"99654"},{"Tourism Name":"N\/A","Category":"tourism","Latitude":61.5803939565,"Longitude":-149.4274610605,"Postcode":"99654"},{"Tourism Name":"N\/A","Category":"tourism","Latitude":61.5808111017,"Longitude":-149.4279798,"Postcode":"99654"},{"Tourism Name":"N\/A","Category":"tourism","Latitude":61.5869184017,"Longitude":-149.4424438,"Postcode":"99654"},{"Tourism Name":"N\/A","Category":"tourism","Latitude":61.5754236017,"Longitude":-149.4021803,"Postcode":"99654"},{"Tourism Name":"Bear statue","Category":"tourism","Latitude":61.5582647017,"Longitude":-149.3512288,"Postcode":"N\/A"},{"Tourism Name":"Bear","Category":"tourism","Latitude":61.5759587017,"Longitude":-149.3995306,"Postcode":"99654"},{"Tourism Name":"Moose","Category":"tourism","Latitude":61.5761745017,"Longitude":-149.3999933,"Postcode":"99654"},{"Tourism Name":"N\/A","Category":"tourism","Latitude":61.5762320017,"Longitude":-149.3994275,"Postcode":"99654"},{"Tourism Name":"N\/A","Category":"tourism","Latitude":61.5765033017,"Longitude":-149.398954,"Postcode":"99654"},{"Tourism Name":"N\/A","Category":"tourism","Latitude":61.585803409,"Longitude":-149.4288613146,"Postcode":"99654"},{"Tourism Name":"N\/A","Category":"tourism","Latitude":61.5857622017,"Longitude":-149.4288641,"Postcode":"99654"},{"Tourism Name":"N\/A","Category":"tourism","Latitude":61.5857938017,"Longitude":-149.4288695,"Postcode":"99654"},{"Tourism Name":"N\/A","Category":"tourism","Latitude":61.5858289017,"Longitude":-149.4288695,"Postcode":"99654"},{"Tourism Name":"N\/A","Category":"tourism","Latitude":61.589107425,"Longitude":-149.4188097405,"Postcode":"99654"},{"Tourism Name":"N\/A","Category":"tourism","Latitude":61.3419977017,"Longitude":-149.0017955,"Postcode":"N\/A"},{"Tourism Name":"N\/A","Category":"tourism","Latitude":60.9604393018,"Longitude":-149.111601,"Postcode":"99523"},{"Tourism Name":"Mt.Alyeska Tram","Category":"tourism","Latitude":60.9701016018,"Longitude":-149.0964024,"Postcode":"99523"},{"Tourism Name":"Red Barn","Category":"tourism","Latitude":61.6317785017,"Longitude":-149.4358024,"Postcode":"N\/A"},{"Tourism Name":"Where the Matanuska RIver Flows","Category":"tourism","Latitude":61.5781331017,"Longitude":-149.2399468,"Postcode":"99645"},{"Tourism Name":"Harkening Spirit","Category":"tourism","Latitude":61.5796127368,"Longitude":-149.2400856641,"Postcode":"N\/A"},{"Tourism Name":"Resurrection Koru","Category":"tourism","Latitude":61.5803616387,"Longitude":-149.2385261231,"Postcode":"N\/A"},{"Tourism Name":"N\/A","Category":"tourism","Latitude":60.7678683017,"Longitude":-149.4455399,"Postcode":"N\/A"},{"Tourism Name":"N\/A","Category":"tourism","Latitude":60.7699917017,"Longitude":-149.4028566,"Postcode":"N\/A"},{"Tourism Name":"Reindeer Farm","Category":"building","Latitude":61.5407943334,"Longitude":-149.0593337073,"Postcode":"N\/A"},{"Tourism Name":"N\/A","Category":"tourism","Latitude":61.5455992017,"Longitude":-149.0616843,"Postcode":"N\/A"},{"Tourism Name":"N\/A","Category":"tourism","Latitude":61.5990833154,"Longitude":-149.1114998889,"Postcode":"99645"},{"Tourism Name":"Colony Inn Cafe","Category":"building","Latitude":61.598960606,"Longitude":-149.1100500011,"Postcode":"99645"},{"Tourism Name":"Palmer Water Tower","Category":"building","Latitude":61.6008825708,"Longitude":-149.1110419174,"Postcode":"99645"},{"Tourism Name":"N\/A","Category":"tourism","Latitude":60.8045809017,"Longitude":-149.1848124,"Postcode":"N\/A"},{"Tourism Name":"N\/A","Category":"tourism","Latitude":60.7957414017,"Longitude":-149.1986441,"Postcode":"N\/A"},{"Tourism Name":"Welcome to Alaska's Kenai Peninsula sign","Category":"tourism","Latitude":60.8456721017,"Longitude":-149.0657819,"Postcode":"N\/A"},{"Tourism Name":"N\/A","Category":"tourism","Latitude":60.7049485017,"Longitude":-149.4698522,"Postcode":"N\/A"},{"Tourism Name":"Galcier Viewpoint","Category":"tourism","Latitude":61.4654859017,"Longitude":-148.863722,"Postcode":"N\/A"},{"Tourism Name":"Musk Ox Farm","Category":"tourism","Latitude":61.6351242017,"Longitude":-149.1275229,"Postcode":"99645"},{"Tourism Name":"Thorpe Mine","Category":"tourism","Latitude":61.7427778016,"Longitude":-149.4277778,"Postcode":"N\/A"},{"Tourism Name":"Gateway Scenic Overlook","Category":"tourism","Latitude":61.7105532016,"Longitude":-149.2322678,"Postcode":"N\/A"},{"Tourism Name":"Gateway Scenic Overlook","Category":"tourism","Latitude":61.7109829016,"Longitude":-149.2321659,"Postcode":"N\/A"},{"Tourism Name":"Scenic Overlook","Category":"tourism","Latitude":61.7133080016,"Longitude":-149.2341459,"Postcode":"N\/A"},{"Tourism Name":"Scenic Overlook","Category":"tourism","Latitude":61.7169204016,"Longitude":-149.2318386,"Postcode":"N\/A"},{"Tourism Name":"Scenic Overlook","Category":"tourism","Latitude":61.7204503016,"Longitude":-149.2347661,"Postcode":"N\/A"},{"Tourism Name":"Gateway Scenic Overlook","Category":"tourism","Latitude":61.7230603016,"Longitude":-149.2361455,"Postcode":"N\/A"},{"Tourism Name":"N\/A","Category":"tourism","Latitude":61.7683010016,"Longitude":-149.3164496,"Postcode":"N\/A"},{"Tourism Name":"Kelly-Willow Prospect","Category":"tourism","Latitude":61.7838889016,"Longitude":-149.3075,"Postcode":"N\/A"},{"Tourism Name":"Eldorado Mine","Category":"tourism","Latitude":61.7813889016,"Longitude":-149.2894444,"Postcode":"N\/A"},{"Tourism Name":"Gold Bullion Mine","Category":"tourism","Latitude":61.7905556016,"Longitude":-149.3241667,"Postcode":"N\/A"},{"Tourism Name":"Martin Mine","Category":"tourism","Latitude":61.7863889016,"Longitude":-149.2911111,"Postcode":"N\/A"},{"Tourism Name":"Independence Mine","Category":"tourism","Latitude":61.7921309016,"Longitude":-149.2935467,"Postcode":"N\/A"},{"Tourism Name":"N\/A","Category":"building","Latitude":61.7960736016,"Longitude":-149.27388965,"Postcode":"N\/A"},{"Tourism Name":"Rae-Wallace Mine","Category":"tourism","Latitude":61.7908333016,"Longitude":-149.2430556,"Postcode":"N\/A"},{"Tourism Name":"N\/A","Category":"tourism","Latitude":60.6538954017,"Longitude":-149.2233773,"Postcode":"N\/A"},{"Tourism Name":"Black Prospect","Category":"man_made","Latitude":61.8090621016,"Longitude":-149.3172678,"Postcode":"N\/A"},{"Tourism Name":"Williwaw Fish Viewing Platform","Category":"tourism","Latitude":60.7875903017,"Longitude":-148.8789675,"Postcode":"N\/A"},{"Tourism Name":"Schroff-O'Neil Mine","Category":"tourism","Latitude":61.8108333016,"Longitude":-149.2988889,"Postcode":"N\/A"},{"Tourism Name":"Marion Twin Mine","Category":"tourism","Latitude":61.8122222016,"Longitude":-149.3008333,"Postcode":"N\/A"},{"Tourism Name":"New Black Diamond Mine","Category":"tourism","Latitude":61.7313889016,"Longitude":-149.0338889,"Postcode":"N\/A"},{"Tourism Name":"Mabel Mine","Category":"tourism","Latitude":61.7950000016,"Longitude":-149.2147222,"Postcode":"N\/A"},{"Tourism Name":"Matanuska Sinner Mine","Category":"tourism","Latitude":61.7347222016,"Longitude":-149.0194444,"Postcode":"N\/A"},{"Tourism Name":"Holland Prospect","Category":"tourism","Latitude":61.8183333016,"Longitude":-149.2911111,"Postcode":"N\/A"},{"Tourism Name":"Arch Prospect","Category":"tourism","Latitude":61.8063228016,"Longitude":-149.2342599,"Postcode":"N\/A"},{"Tourism Name":"Webfoot Prospect","Category":"tourism","Latitude":61.8111111016,"Longitude":-149.2463889,"Postcode":"N\/A"},{"Tourism Name":"Lonesome Mine","Category":"tourism","Latitude":61.7857814016,"Longitude":-149.1246423,"Postcode":"N\/A"},{"Tourism Name":"Talkeetna Mine","Category":"tourism","Latitude":61.8241667016,"Longitude":-149.2533333,"Postcode":"N\/A"},{"Tourism Name":"Fern Mine","Category":"tourism","Latitude":61.8231709016,"Longitude":-149.2422185,"Postcode":"N\/A"},{"Tourism Name":"Portage Glacier Cruise","Category":"tourism","Latitude":60.7720279017,"Longitude":-148.8299118,"Postcode":"N\/A"},{"Tourism Name":"Evan Jones Mine","Category":"tourism","Latitude":61.7319444016,"Longitude":-148.9363889,"Postcode":"N\/A"},{"Tourism Name":"Alpine Historical Park","Category":"leisure","Latitude":61.7101425817,"Longitude":-148.8757633693,"Postcode":"N\/A"},{"Tourism Name":"Sutton Coal Wash Plant","Category":"tourism","Latitude":61.7098217016,"Longitude":-148.8762077,"Postcode":"N\/A"},{"Tourism Name":"Snowbird Mine","Category":"tourism","Latitude":61.8312166016,"Longitude":-149.2038019,"Postcode":"N\/A"},{"Tourism Name":"Lane Prospect","Category":"tourism","Latitude":61.8447222016,"Longitude":-149.2319444,"Postcode":"N\/A"},{"Tourism Name":"Tern Lake Overlook","Category":"tourism","Latitude":60.5347770017,"Longitude":-149.5483103,"Postcode":"N\/A"},{"Tourism Name":"Tern Lake","Category":"tourism","Latitude":60.5341078017,"Longitude":-149.5479133,"Postcode":"N\/A"},{"Tourism Name":"Portage Overlook","Category":"tourism","Latitude":60.7684371017,"Longitude":-148.75018,"Postcode":"99693"},{"Tourism Name":"Alaska Wildland Adventures","Category":"tourism","Latitude":60.4878985017,"Longitude":-149.8746062,"Postcode":"N\/A"},{"Tourism Name":"Alaskans at Cooper Landing","Category":"tourism","Latitude":60.4873517017,"Longitude":-149.8734929,"Postcode":"N\/A"},{"Tourism Name":"Alaska Rivers Company","Category":"tourism","Latitude":60.4868965017,"Longitude":-149.867592,"Postcode":"N\/A"},{"Tourism Name":"N\/A","Category":"tourism","Latitude":60.7772678017,"Longitude":-148.6839657,"Postcode":"99693"},{"Tourism Name":"N\/A","Category":"tourism","Latitude":60.7746931017,"Longitude":-148.6857895,"Postcode":"99693"},{"Tourism Name":"The Bomber Wreck","Category":"tourism","Latitude":61.8587549016,"Longitude":-149.1203392,"Postcode":"N\/A"},{"Tourism Name":"N\/A","Category":"tourism","Latitude":60.7689763017,"Longitude":-148.6751248,"Postcode":"99693"},{"Tourism Name":"N\/A","Category":"tourism","Latitude":60.7809030017,"Longitude":-148.6507411,"Postcode":"99693"},{"Tourism Name":"1969 Russian River Fire and Mark Westover","Category":"tourism","Latitude":60.4658448017,"Longitude":-149.9726188,"Postcode":"N\/A"},{"Tourism Name":"N\/A","Category":"tourism","Latitude":60.7875707017,"Longitude":-148.6254549,"Postcode":"N\/A"},{"Tourism Name":"Sheep Creek Sport Fishing Access Site","Category":"tourism","Latitude":61.9710671016,"Longitude":-150.0826072,"Postcode":"N\/A"},{"Tourism Name":"N\/A","Category":"tourism","Latitude":60.4547530017,"Longitude":-149.9870527,"Postcode":"N\/A"},{"Tourism Name":"N\/A","Category":"tourism","Latitude":60.4546859017,"Longitude":-149.9870366,"Postcode":"N\/A"},{"Tourism Name":"N\/A","Category":"tourism","Latitude":60.4677045017,"Longitude":-150.2052232,"Postcode":"99572"},{"Tourism Name":"Russian River Rendezvous","Category":"tourism","Latitude":60.4521004017,"Longitude":-149.985699,"Postcode":"N\/A"},{"Tourism Name":"N\/A","Category":"tourism","Latitude":61.7338836016,"Longitude":-148.6970531,"Postcode":"N\/A"},{"Tourism Name":"Wreck of the MV Leschi","Category":"tourism","Latitude":60.7951235437,"Longitude":-148.5326652149,"Postcode":"N\/A"},{"Tourism Name":"MV Leschi","Category":"access","Latitude":60.7951024017,"Longitude":-148.5326575,"Postcode":"N\/A"},{"Tourism Name":"Mt McGhan Monument","Category":"tourism","Latitude":60.4372741017,"Longitude":-149.5550609,"Postcode":"N\/A"},{"Tourism Name":"N\/A","Category":"tourism","Latitude":61.7885299016,"Longitude":-148.4390366,"Postcode":"99674"},{"Tourism Name":"Kenai River Flats","Category":"leisure","Latitude":60.5244879859,"Longitude":-151.2085735445,"Postcode":"N\/A"},{"Tourism Name":"Holy Assumption of the Virgin Mary Russian Orthodox Church","Category":"building","Latitude":60.5529119017,"Longitude":-151.26770725,"Postcode":"99611"},{"Tourism Name":"Moose","Category":"tourism","Latitude":60.4643623017,"Longitude":-151.0754851,"Postcode":"99669"},{"Tourism Name":"Kenai Landing","Category":"tourism","Latitude":60.5321278017,"Longitude":-151.256556,"Postcode":"99511"},{"Tourism Name":"N\/A","Category":"tourism","Latitude":60.2962490017,"Longitude":-149.3521118,"Postcode":"N\/A"},{"Tourism Name":"N\/A","Category":"tourism","Latitude":60.2630139017,"Longitude":-149.3428788,"Postcode":"N\/A"},{"Tourism Name":"College Fjord","Category":"tourism","Latitude":61.1885495017,"Longitude":-147.8088252,"Postcode":"N\/A"},{"Tourism Name":"The Hobbit Cabin","Category":"tourism","Latitude":62.2551219014,"Longitude":-150.0810296,"Postcode":"99676"},{"Tourism Name":"N\/A","Category":"tourism","Latitude":60.1850131017,"Longitude":-149.6282949,"Postcode":"N\/A"},{"Tourism Name":"N\/A","Category":"tourism","Latitude":60.1842156017,"Longitude":-149.6301831,"Postcode":"N\/A"},{"Tourism Name":"N\/A","Category":"tourism","Latitude":60.1816986017,"Longitude":-149.6400225,"Postcode":"N\/A"},{"Tourism Name":"N\/A","Category":"tourism","Latitude":60.1804031017,"Longitude":-149.6435875,"Postcode":"N\/A"},{"Tourism Name":"Exit Glacier Overlook","Category":"tourism","Latitude":60.1801435017,"Longitude":-149.645361,"Postcode":"N\/A"},{"Tourism Name":"Kasilof Boat Harbor Cemetery","Category":"tourism","Latitude":60.3914633235,"Longitude":-151.2928506779,"Postcode":"N\/A"},{"Tourism Name":"N\/A","Category":"heritage","Latitude":62.3200001514,"Longitude":-150.11336365,"Postcode":"N\/A"},{"Tourism Name":"Denali Zipline Tours","Category":"building","Latitude":62.3210217147,"Longitude":-150.1096477569,"Postcode":"99676"},{"Tourism Name":"Site Of Belle Lee McDonald’s Barn","Category":"tourism","Latitude":62.3223725014,"Longitude":-150.1192524,"Postcode":"N\/A"},{"Tourism Name":"Benny Benson Memorial Park","Category":"tourism","Latitude":60.1196987017,"Longitude":-149.4419864,"Postcode":"99664"},{"Tourism Name":"Mariah Tours","Category":"tourism","Latitude":60.1174701017,"Longitude":-149.439235,"Postcode":"99664"},{"Tourism Name":"Kenai Fjords Tours","Category":"tourism","Latitude":60.1173123017,"Longitude":-149.439244,"Postcode":"99664"},{"Tourism Name":"N\/A","Category":"tourism","Latitude":61.7943829016,"Longitude":-147.8808467,"Postcode":"N\/A"},{"Tourism Name":"Good Friday Earthquake Memorial","Category":"tourism","Latitude":60.1169631017,"Longitude":-149.4398127,"Postcode":"99664"},{"Tourism Name":"Major Marine Tours","Category":"tourism","Latitude":60.1169889017,"Longitude":-149.439219,"Postcode":"99664"},{"Tourism Name":"Seward Mariners' Memorial","Category":"tourism","Latitude":60.1150922017,"Longitude":-149.435433,"Postcode":"99664"},{"Tourism Name":"Glacier View 4th of July Car Launch","Category":"tourism","Latitude":61.7952623016,"Longitude":-147.868706,"Postcode":"N\/A"},{"Tourism Name":"The Van Gilder Hotel","Category":"accommodation","Latitude":60.1030120016,"Longitude":-149.4408809,"Postcode":"99664"},{"Tourism Name":"William H Seward Bust","Category":"tourism","Latitude":60.1029290016,"Longitude":-149.4407106,"Postcode":"99664"},{"Tourism Name":"N\/A","Category":"tourism","Latitude":61.8027783016,"Longitude":-147.8550446,"Postcode":"N\/A"},{"Tourism Name":"Founder's Monument","Category":"tourism","Latitude":60.1014573016,"Longitude":-149.4353703,"Postcode":"99664"},{"Tourism Name":"Seward Depot","Category":"building","Latitude":60.1007201618,"Longitude":-149.4387948353,"Postcode":"99664"},{"Tourism Name":"Jujiro Wada Iditarod Trail Pioneer","Category":"tourism","Latitude":60.1008433016,"Longitude":-149.438349,"Postcode":"99664"},{"Tourism Name":"N\/A","Category":"tourism","Latitude":61.7992501016,"Longitude":-147.8140416,"Postcode":"N\/A"},{"Tourism Name":"N\/A","Category":"tourism","Latitude":61.7962507016,"Longitude":-147.8048279,"Postcode":"N\/A"},{"Tourism Name":"N\/A","Category":"tourism","Latitude":61.7977144016,"Longitude":-147.796082,"Postcode":"N\/A"},{"Tourism Name":"MICA Glacier Adventures","Category":"tourism","Latitude":61.7966394016,"Longitude":-147.7744801,"Postcode":"N\/A"},{"Tourism Name":"N\/A","Category":"tourism","Latitude":61.7971735016,"Longitude":-147.7437919,"Postcode":"N\/A"},{"Tourism Name":"Fort McGilvray","Category":"tourism","Latitude":59.9867398016,"Longitude":-149.3896686,"Postcode":"N\/A"},{"Tourism Name":"N\/A","Category":"tourism","Latitude":61.8075512016,"Longitude":-147.5200252,"Postcode":"N\/A"},{"Tourism Name":"Chenega","Category":"tourism","Latitude":60.2801344954,"Longitude":-148.0766842743,"Postcode":"N\/A"},{"Tourism Name":"N\/A","Category":"tourism","Latitude":61.8213084016,"Longitude":-147.4572802,"Postcode":"N\/A"},{"Tourism Name":"N\/A","Category":"tourism","Latitude":61.8201625016,"Longitude":-147.4410249,"Postcode":"N\/A"},{"Tourism Name":"N\/A","Category":"tourism","Latitude":60.1536746017,"Longitude":-151.4988635,"Postcode":"N\/A"},{"Tourism Name":"N\/A","Category":"tourism","Latitude":61.8365578016,"Longitude":-147.4044764,"Postcode":"N\/A"},{"Tourism Name":"Denali view","Category":"tourism","Latitude":62.5568591013,"Longitude":-150.2205239,"Postcode":"N\/A"},{"Tourism Name":"Hudson's Plane","Category":"tourism","Latitude":62.5563853013,"Longitude":-150.2302526,"Postcode":"N\/A"},{"Tourism Name":"N\/A","Category":"tourism","Latitude":61.8524758016,"Longitude":-147.3725367,"Postcode":"N\/A"},{"Tourism Name":"Kenai Peninsula","Category":"tourism","Latitude":59.9798474016,"Longitude":-151.0688181,"Postcode":"N\/A"},{"Tourism Name":"N\/A","Category":"tourism","Latitude":61.8658207016,"Longitude":-147.3489225,"Postcode":"N\/A"},{"Tourism Name":"Kenai Peninsula","Category":"tourism","Latitude":59.8608291016,"Longitude":-149.38966,"Postcode":"N\/A"},{"Tourism Name":"Lower Troublesomel Creek","Category":"tourism","Latitude":62.5922658223,"Longitude":-150.2392547669,"Postcode":"N\/A"},{"Tourism Name":"Denali View South","Category":"tourism","Latitude":62.5930204013,"Longitude":-150.2405367,"Postcode":"N\/A"},{"Tourism Name":"Mnt McKinley Viewpoint","Category":"tourism","Latitude":62.5952343013,"Longitude":-150.2404824,"Postcode":"N\/A"},{"Tourism Name":"Denali view","Category":"tourism","Latitude":62.6009259013,"Longitude":-150.2348932,"Postcode":"N\/A"},{"Tourism Name":"Upper Troublesomel Creek","Category":"tourism","Latitude":62.6304799021,"Longitude":-150.226970739,"Postcode":"N\/A"},{"Tourism Name":"N\/A","Category":"tourism","Latitude":60.0479174016,"Longitude":-151.6534686,"Postcode":"99639"},{"Tourism Name":"Boat Launch","Category":"tourism","Latitude":60.0484767016,"Longitude":-151.6726479,"Postcode":"99639"},{"Tourism Name":"Boat Launch","Category":"tourism","Latitude":60.0484590016,"Longitude":-151.6726426,"Postcode":"99639"},{"Tourism Name":"Barefooter's Homestead","Category":"building","Latitude":59.8257721016,"Longitude":-150.976372,"Postcode":"N\/A"},{"Tourism Name":"Alaska Veteran's Memorial","Category":"tourism","Latitude":62.7456391012,"Longitude":-150.1308269,"Postcode":"N\/A"},{"Tourism Name":"Rainwater Homestead Cabin (historical)","Category":"building","Latitude":59.7989527516,"Longitude":-151.1097144,"Postcode":"N\/A"},{"Tourism Name":"Russell Cabin","Category":"building","Latitude":59.7876067014,"Longitude":-151.0857388,"Postcode":"N\/A"},{"Tourism Name":"N\/A","Category":"tourism","Latitude":59.9543968016,"Longitude":-151.731464,"Postcode":"N\/A"},{"Tourism Name":"Mountain Subdivision","Category":"heritage","Latitude":62.7678756512,"Longitude":-149.6931343,"Postcode":"N\/A"},{"Tourism Name":"N\/A","Category":"tourism","Latitude":59.9548691016,"Longitude":-151.7348616,"Postcode":"N\/A"},{"Tourism Name":"N\/A","Category":"tourism","Latitude":59.7750543016,"Longitude":-151.1796177,"Postcode":"N\/A"},{"Tourism Name":"Lighthouse with Sea Lion","Category":"tourism","Latitude":61.0811124017,"Longitude":-146.6530851,"Postcode":"N\/A"},{"Tourism Name":"N\/A","Category":"tourism","Latitude":62.7990583011,"Longitude":-149.8673422,"Postcode":"N\/A"},{"Tourism Name":"N\/A","Category":"tourism","Latitude":59.7606123016,"Longitude":-151.2081601,"Postcode":"N\/A"},{"Tourism Name":"N\/A","Category":"tourism","Latitude":59.8895317016,"Longitude":-151.7823082,"Postcode":"N\/A"},{"Tourism Name":"N\/A","Category":"tourism","Latitude":59.7404824015,"Longitude":-151.2528626,"Postcode":"N\/A"},{"Tourism Name":"Kilcher Homestead","Category":"building","Latitude":59.7224598515,"Longitude":-151.2569236,"Postcode":"N\/A"},{"Tourism Name":"Denali View North","Category":"tourism","Latitude":62.8870475011,"Longitude":-149.7857447,"Postcode":"N\/A"},{"Tourism Name":"N\/A","Category":"tourism","Latitude":59.6530732015,"Longitude":-151.0972774,"Postcode":"N\/A"},{"Tourism Name":"N\/A","Category":"tourism","Latitude":59.6510408015,"Longitude":-151.0982998,"Postcode":"N\/A"},{"Tourism Name":"N\/A","Category":"tourism","Latitude":59.7728242016,"Longitude":-151.6196939,"Postcode":"N\/A"},{"Tourism Name":"N\/A","Category":"tourism","Latitude":61.1248256017,"Longitude":-146.3594707,"Postcode":"99686"},{"Tourism Name":"Whispering Giant, by Peter Toth","Category":"tourism","Latitude":61.1311176017,"Longitude":-146.3512046,"Postcode":"99686"},{"Tourism Name":"Valdez, Alaska Arch","Category":"tourism","Latitude":61.1296487517,"Longitude":-146.3463698,"Postcode":"99686"},{"Tourism Name":"Dock Point Trail","Category":"tourism","Latitude":61.1272642017,"Longitude":-146.3380758,"Postcode":"99686"},{"Tourism Name":"Dock Point Trail","Category":"highway","Latitude":61.1277748501,"Longitude":-146.3308417273,"Postcode":"99686"},{"Tourism Name":"N\/A","Category":"highway","Latitude":61.1380614412,"Longitude":-146.333864269,"Postcode":"99686"},{"Tourism Name":"N\/A","Category":"tourism","Latitude":59.7792159016,"Longitude":-151.8399422,"Postcode":"N\/A"},{"Tourism Name":"Valdez City Viewing Point","Category":"tourism","Latitude":61.0837885017,"Longitude":-146.3095089,"Postcode":"99686"},{"Tourism Name":"N\/A","Category":"tourism","Latitude":59.6702480015,"Longitude":-151.5118651,"Postcode":"99603"},{"Tourism Name":"N\/A","Category":"tourism","Latitude":61.0807610017,"Longitude":-146.3043195,"Postcode":"N\/A"},{"Tourism Name":"Beluga Wetlands Overlook","Category":"tourism","Latitude":59.6452841015,"Longitude":-151.4913449,"Postcode":"99603"},{"Tourism Name":"Beluga Wetlands Overlook","Category":"tourism","Latitude":59.6444725015,"Longitude":-151.4921552,"Postcode":"99603"},{"Tourism Name":"Alaska Bear Tours","Category":"building","Latitude":59.6421703515,"Longitude":-151.5209659,"Postcode":"N\/A"},{"Tourism Name":"Alaska Ultimate Safaris","Category":"building","Latitude":59.6419303015,"Longitude":-151.5211267,"Postcode":"N\/A"},{"Tourism Name":"Alaska Bear Adventures","Category":"building","Latitude":59.6418657492,"Longitude":-151.5222401624,"Postcode":"N\/A"},{"Tourism Name":"KBBI","Category":"tourism","Latitude":59.6435680015,"Longitude":-151.5405312,"Postcode":"N\/A"},{"Tourism Name":"Clinic of Chiropractic Health","Category":"building","Latitude":59.6446658772,"Longitude":-151.5456379234,"Postcode":"99603"},{"Tourism Name":"N\/A","Category":"building","Latitude":59.6445084015,"Longitude":-151.5496836,"Postcode":"N\/A"},{"Tourism Name":"Harrington Cabin","Category":"access","Latitude":59.6445440015,"Longitude":-151.5497312,"Postcode":"N\/A"},{"Tourism Name":"Old Town","Category":"populated_place","Latitude":59.6393632641,"Longitude":-151.5423687517,"Postcode":"N\/A"},{"Tourism Name":"N\/A","Category":"tourism","Latitude":59.6389478015,"Longitude":-151.5446834,"Postcode":"N\/A"},{"Tourism Name":"N\/A","Category":"tourism","Latitude":59.6062533015,"Longitude":-151.432524,"Postcode":"99603"},{"Tourism Name":"N\/A","Category":"tourism","Latitude":59.6062684015,"Longitude":-151.4328017,"Postcode":"99603"},{"Tourism Name":"Baycrest Overlook","Category":"tourism","Latitude":59.6543359015,"Longitude":-151.6277002,"Postcode":"N\/A"},{"Tourism Name":"N\/A","Category":"tourism","Latitude":59.6050414015,"Longitude":-151.429984,"Postcode":"99603"},{"Tourism Name":"N\/A","Category":"tourism","Latitude":59.6031829015,"Longitude":-151.4239664,"Postcode":"N\/A"},{"Tourism Name":"N\/A","Category":"tourism","Latitude":59.6020449015,"Longitude":-151.4203642,"Postcode":"N\/A"},{"Tourism Name":"N\/A","Category":"tourism","Latitude":59.6017232015,"Longitude":-151.4193195,"Postcode":"N\/A"},{"Tourism Name":"Salty Dawg","Category":"building","Latitude":59.601995046,"Longitude":-151.4215044724,"Postcode":"N\/A"},{"Tourism Name":"Rainbow Tours","Category":"building","Latitude":59.6021455066,"Longitude":-151.4238420756,"Postcode":"N\/A"},{"Tourism Name":"Alaska Bear Adventures","Category":"tourism","Latitude":59.6020798015,"Longitude":-151.4235214,"Postcode":"N\/A"},{"Tourism Name":"Seafarer's Memorial","Category":"man_made","Latitude":59.6006290015,"Longitude":-151.418944,"Postcode":"N\/A"},{"Tourism Name":"Ruth Glacier Landing","Category":"tourism","Latitude":62.966331601,"Longitude":-150.760141,"Postcode":"N\/A"},{"Tourism Name":"Hurricane Gulch","Category":"tourism","Latitude":63.013694001,"Longitude":-149.621105,"Postcode":"N\/A"},{"Tourism Name":"name=Cape Hinchinbrook Light Station","Category":"heritage","Latitude":60.2379368883,"Longitude":-146.6477507096,"Postcode":"N\/A"},{"Tourism Name":"Main Wharf and Seawall","Category":"heritage","Latitude":60.2391944017,"Longitude":-146.65150785,"Postcode":"N\/A"},{"Tourism Name":"Main Wharf and Seawall","Category":"heritage","Latitude":60.2392020517,"Longitude":-146.6511875,"Postcode":"N\/A"},{"Tourism Name":"Cape Hinchinbrook Light Station","Category":"building","Latitude":60.2375782067,"Longitude":-146.6466832333,"Postcode":"N\/A"},{"Tourism Name":"Chugach","Category":"heritage","Latitude":60.2377584017,"Longitude":-146.646617,"Postcode":"N\/A"},{"Tourism Name":"Chugach","Category":"building","Latitude":60.2372635498,"Longitude":-146.6470280288,"Postcode":"N\/A"},{"Tourism Name":"Chugach","Category":"heritage","Latitude":60.2372714497,"Longitude":-146.6452915163,"Postcode":"N\/A"},{"Tourism Name":"East Pump House","Category":"building","Latitude":60.2372130552,"Longitude":-146.6439952749,"Postcode":"N\/A"},{"Tourism Name":"Yukon Island Dig","Category":"tourism","Latitude":59.5145600015,"Longitude":-151.48308,"Postcode":"N\/A"},{"Tourism Name":"Great Midden","Category":"tourism","Latitude":59.5154882015,"Longitude":-151.495428,"Postcode":"N\/A"},{"Tourism Name":"N\/A","Category":"tourism","Latitude":62.0073837768,"Longitude":-146.2500804174,"Postcode":"N\/A"},{"Tourism Name":"Keystone Canyon","Category":"tourism","Latitude":61.0597372017,"Longitude":-145.9136018,"Postcode":"N\/A"},{"Tourism Name":"Horsetail Falls","Category":"tourism","Latitude":61.0677202017,"Longitude":-145.9072298,"Postcode":"N\/A"},{"Tourism Name":"N\/A","Category":"tourism","Latitude":61.0852613517,"Longitude":-145.893749,"Postcode":"N\/A"},{"Tourism Name":"N\/A","Category":"tourism","Latitude":61.0875463552,"Longitude":-145.8894922282,"Postcode":"N\/A"},{"Tourism Name":"Bridalveil Falls","Category":"tourism","Latitude":61.0698613017,"Longitude":-145.8954656,"Postcode":"N\/A"},{"Tourism Name":"Rudleston Falls","Category":"tourism","Latitude":61.0832408017,"Longitude":-145.8924669,"Postcode":"N\/A"},{"Tourism Name":"N\/A","Category":"tourism","Latitude":61.0923947517,"Longitude":-145.88828365,"Postcode":"N\/A"},{"Tourism Name":"N\/A","Category":"tourism","Latitude":61.0912705017,"Longitude":-145.8882022,"Postcode":"N\/A"},{"Tourism Name":"Rohn Public Shelter Cabin","Category":"access","Latitude":62.2949094014,"Longitude":-153.373403,"Postcode":"N\/A"},{"Tourism Name":"Igloo City","Category":"tourism","Latitude":63.1881410008,"Longitude":-149.3606924,"Postcode":"N\/A"},{"Tourism Name":"Richard Proenneke Cabin","Category":"tourism","Latitude":60.6450045017,"Longitude":-153.8209534,"Postcode":"N\/A"},{"Tourism Name":"Seldovia Boardwalk","Category":"tourism","Latitude":59.4358279014,"Longitude":-151.7111129,"Postcode":"99663"},{"Tourism Name":"Worthington Glacier State Recreation Site","Category":"leisure","Latitude":61.1671763949,"Longitude":-145.7190554916,"Postcode":"N\/A"},{"Tourism Name":"Old Village","Category":"tourism","Latitude":60.9624958018,"Longitude":-154.0374418,"Postcode":"N\/A"},{"Tourism Name":"N\/A","Category":"tourism","Latitude":61.1676986017,"Longitude":-145.7171558,"Postcode":"N\/A"},{"Tourism Name":"Indian Village","Category":"tourism","Latitude":59.3976182014,"Longitude":-151.6950811,"Postcode":"N\/A"},{"Tourism Name":"Fisherman's Memorial","Category":"tourism","Latitude":60.543065646,"Longitude":-145.7646915227,"Postcode":"99574"},{"Tourism Name":"Cordova Ranger Distric Office","Category":"building","Latitude":60.5440916457,"Longitude":-145.7565201119,"Postcode":"99574"},{"Tourism Name":"N\/A","Category":"tourism","Latitude":63.0608437009,"Longitude":-147.445415,"Postcode":"N\/A"},{"Tourism Name":"N\/A","Category":"tourism","Latitude":63.054831701,"Longitude":-147.4160931,"Postcode":"N\/A"},{"Tourism Name":"N\/A","Category":"building","Latitude":61.2899930271,"Longitude":-145.2735901372,"Postcode":"N\/A"},{"Tourism Name":"Stony Overlook","Category":"tourism","Latitude":63.4570942006,"Longitude":-150.2281022,"Postcode":"N\/A"},{"Tourism Name":"McKinley River","Category":"tourism","Latitude":63.4298051006,"Longitude":-150.8181594,"Postcode":"N\/A"},{"Tourism Name":"McKinley River Bar trail start","Category":"tourism","Latitude":63.4581135006,"Longitude":-150.8503124,"Postcode":"N\/A"},{"Tourism Name":"Scenic Point","Category":"tourism","Latitude":62.0814948015,"Longitude":-145.4340063,"Postcode":"N\/A"},{"Tourism Name":"Polychrome Overlook","Category":"tourism","Latitude":63.5356806005,"Longitude":-149.8300512,"Postcode":"N\/A"},{"Tourism Name":"N\/A","Category":"tourism","Latitude":61.7794424016,"Longitude":-145.1816202,"Postcode":"99588"},{"Tourism Name":"N\/A","Category":"tourism","Latitude":61.7781942516,"Longitude":-145.1801634,"Postcode":"99588"},{"Tourism Name":"Polychrome Pass","Category":"tourism","Latitude":63.5416648005,"Longitude":-149.8034227,"Postcode":"N\/A"},{"Tourism Name":"Upper Klawasi Volcano","Category":"tourism","Latitude":62.0576113375,"Longitude":-145.2243493019,"Postcode":"N\/A"},{"Tourism Name":"N\/A","Category":"tourism","Latitude":60.4287955017,"Longitude":-145.3035697,"Postcode":"N\/A"},{"Tourism Name":"N\/A","Category":"tourism","Latitude":60.4287293017,"Longitude":-145.3014507,"Postcode":"N\/A"},{"Tourism Name":"N\/A","Category":"tourism","Latitude":62.2974589014,"Longitude":-145.3280979,"Postcode":"99586"},{"Tourism Name":"Williamsport Road","Category":"highway","Latitude":59.7583531516,"Longitude":-153.8465299,"Postcode":"N\/A"},{"Tourism Name":"Gakona Lodge and Trading Post","Category":"accommodation","Latitude":62.3023370962,"Longitude":-145.3031165045,"Postcode":"99586"},{"Tourism Name":"Tonsina River Overlook","Category":"tourism","Latitude":61.6764656017,"Longitude":-144.8475561,"Postcode":"N\/A"},{"Tourism Name":"N\/A","Category":"tourism","Latitude":63.1191978009,"Longitude":-146.5317151,"Postcode":"N\/A"},{"Tourism Name":"N\/A","Category":"tourism","Latitude":63.0963654009,"Longitude":-146.4411771,"Postcode":"N\/A"},{"Tourism Name":"N\/A","Category":"tourism","Latitude":63.0969188009,"Longitude":-146.4417619,"Postcode":"N\/A"},{"Tourism Name":"Husky Homestead","Category":"tourism","Latitude":63.6428156004,"Longitude":-148.7839398,"Postcode":"N\/A"},{"Tourism Name":"N\/A","Category":"tourism","Latitude":63.0988606009,"Longitude":-146.4429957,"Postcode":"N\/A"},{"Tourism Name":"Shrub Volcano","Category":"tourism","Latitude":62.1430233768,"Longitude":-145.0204547457,"Postcode":"N\/A"},{"Tourism Name":"Alaska Yaks","Category":"tourism","Latitude":61.6778039017,"Longitude":-144.75807,"Postcode":"99573"},{"Tourism Name":"USS Coldbrook","Category":"tourism","Latitude":59.4271370364,"Longitude":-146.3573150286,"Postcode":"N\/A"},{"Tourism Name":"Sanctuary River Cabin No. 31","Category":"building","Latitude":63.7228275537,"Longitude":-149.4732980236,"Postcode":"N\/A"},{"Tourism Name":"N\/A","Category":"tourism","Latitude":63.7124240004,"Longitude":-149.2267451,"Postcode":"N\/A"},{"Tourism Name":"N\/A","Category":"tourism","Latitude":62.6433624012,"Longitude":-145.4789885,"Postcode":"N\/A"},{"Tourism Name":"trail","Category":"tourism","Latitude":63.2094293008,"Longitude":-146.5665649,"Postcode":"N\/A"},{"Tourism Name":"Sled Dog Puppies","Category":"tourism","Latitude":63.7194784004,"Longitude":-148.9686095,"Postcode":"N\/A"},{"Tourism Name":"Sled Dog Demonstrations","Category":"tourism","Latitude":63.7195788004,"Longitude":-148.9679982,"Postcode":"N\/A"},{"Tourism Name":"N\/A","Category":"tourism","Latitude":60.6664332017,"Longitude":-144.763568,"Postcode":"N\/A"},{"Tourism Name":"N\/A","Category":"tourism","Latitude":60.6655147017,"Longitude":-144.7640321,"Postcode":"N\/A"},{"Tourism Name":"N\/A","Category":"tourism","Latitude":60.6648025017,"Longitude":-144.7642976,"Postcode":"N\/A"},{"Tourism Name":"N\/A","Category":"building","Latitude":60.6659444583,"Longitude":-144.7634802594,"Postcode":"N\/A"},{"Tourism Name":"N\/A","Category":"tourism","Latitude":63.7387018003,"Longitude":-148.9114317,"Postcode":"N\/A"},{"Tourism Name":"N\/A","Category":"tourism","Latitude":63.7388496003,"Longitude":-148.9123802,"Postcode":"N\/A"},{"Tourism Name":"N\/A","Category":"tourism","Latitude":63.7391662003,"Longitude":-148.9089268,"Postcode":"N\/A"},{"Tourism Name":"Raft Denali","Category":"tourism","Latitude":63.7380472003,"Longitude":-148.886218,"Postcode":"99755"},{"Tourism Name":"N\/A","Category":"tourism","Latitude":63.7406423003,"Longitude":-148.90932,"Postcode":"N\/A"},{"Tourism Name":"Temsco Helicopters","Category":"tourism","Latitude":63.7388621003,"Longitude":-148.8860402,"Postcode":"99755"},{"Tourism Name":"Miles Glacier Bridge","Category":"man_made","Latitude":60.6730527615,"Longitude":-144.7457886563,"Postcode":"N\/A"},{"Tourism Name":"Copper River Highway","Category":"heritage","Latitude":60.6730494517,"Longitude":-144.7457885,"Postcode":"N\/A"},{"Tourism Name":"N\/A","Category":"building","Latitude":60.6708864523,"Longitude":-144.7475264494,"Postcode":"N\/A"},{"Tourism Name":"N\/A","Category":"tourism","Latitude":63.7742476003,"Longitude":-148.910572,"Postcode":"N\/A"},{"Tourism Name":"N\/A","Category":"tourism","Latitude":63.7862895003,"Longitude":-148.9165074,"Postcode":"N\/A"},{"Tourism Name":"N\/A","Category":"tourism","Latitude":63.7947168003,"Longitude":-148.9223814,"Postcode":"N\/A"},{"Tourism Name":"Gilpatrick's Hotel Chitina","Category":"accommodation","Latitude":61.5158541779,"Longitude":-144.4407646252,"Postcode":"99566"},{"Tourism Name":"Chitina Emporium","Category":"building","Latitude":61.5157923904,"Longitude":-144.4397810547,"Postcode":"N\/A"},{"Tourism Name":"Former Magic Bus location","Category":"tourism","Latitude":63.8682895002,"Longitude":-149.769163,"Postcode":"N\/A"},{"Tourism Name":"49th State","Category":"catering","Latitude":63.8638809002,"Longitude":-149.016428,"Postcode":"99743"},{"Tourism Name":"Magic Bus Replica","Category":"tourism","Latitude":63.8640591002,"Longitude":-149.0167859,"Postcode":"99743"},{"Tourism Name":"Dry Creek Archeological Site","Category":"tourism","Latitude":63.9091670002,"Longitude":-149.016667,"Postcode":"99743"},{"Tourism Name":"Sevenmile Lake Overlook","Category":"tourism","Latitude":63.0925736009,"Longitude":-145.6337142,"Postcode":"N\/A"},{"Tourism Name":"Chistochina Roadhouse","Category":"building","Latitude":62.5643941881,"Longitude":-144.6664905011,"Postcode":"N\/A"},{"Tourism Name":"Richardson Monument","Category":"tourism","Latitude":63.1822076008,"Longitude":-145.5395838,"Postcode":"N\/A"},{"Tourism Name":"Millers Roadhouse","Category":"building","Latitude":63.3672007007,"Longitude":-145.72747725,"Postcode":"N\/A"},{"Tourism Name":"Donnelly Training Area","Category":"tourism","Latitude":63.9176258268,"Longitude":-146.3115972802,"Postcode":"N\/A"},{"Tourism Name":"Chugach","Category":"building","Latitude":59.7988634709,"Longitude":-144.5996714969,"Postcode":"N\/A"},{"Tourism Name":"Chugach","Category":"heritage","Latitude":59.798572317,"Longitude":-144.5991018906,"Postcode":"N\/A"},{"Tourism Name":"Chugach","Category":"building","Latitude":59.7987003016,"Longitude":-144.5994373,"Postcode":"N\/A"},{"Tourism Name":"Chugach","Category":"heritage","Latitude":59.7983550555,"Longitude":-144.5992333812,"Postcode":"N\/A"},{"Tourism Name":"Chugach","Category":"building","Latitude":59.7986026016,"Longitude":-144.5987955,"Postcode":"N\/A"},{"Tourism Name":"Cape St. Elias Lighthouse","Category":"building","Latitude":59.7983755834,"Longitude":-144.5987099197,"Postcode":"N\/A"},{"Tourism Name":"Chugach","Category":"building","Latitude":59.7984527459,"Longitude":-144.5985474313,"Postcode":"N\/A"},{"Tourism Name":"Copper River & Northwestern Railway","Category":"tourism","Latitude":61.4385694231,"Longitude":-143.7184545444,"Postcode":"N\/A"},{"Tourism Name":"Gilahina Trestle","Category":"tourism","Latitude":61.4386592017,"Longitude":-143.7185161,"Postcode":"N\/A"}]